name,lat,lng,address,zone,city
14 ER Pally Sadharan Durgotsav,22.582049,88.382161,"237P/1A, Maniktala Main Rd, Manicktala, Narkeldanga, Kolkata, West Bengal 700054",CCU-C,Kolkata
19 Pally,22.512735,88.3675,"Sony Centre, 102, SH1, Dhakuria, Kolkata - 700029, WB, India",CCU-S,Kolkata
2 no. Subhasnagar Durgotsav,22.7051266,88.373403,"The Sayans Blog, Peerless Nagar, Barrackpore Trunk Road, Sodepur, Kolkata - 700114, WB, India",CCU-N,Kolkata
20 Palli Sarbojanin Durgotsav,22.5936339,88.3581339,"35-139, Brindaban Basak Street, Ahiritola, Beniatola, Kolkata- 700005, West Bengal",CCU-N,Kolkata
20 Pally Puja O Janakalyan Samity,22.550168,88.370926,"?P-65 Dr, Sundari Mohan Avenue Kolkata -700014",CCU-C,Kolkata
21 Pally Sarbojanin Durgotsab Samiti,22.529242,88.368609,"17, Near Patha Bhavan And Beside, Bondel Rd, Ballygunge, Kolkata-700019",CCU-S,Kolkata
22 Palli Northern Park,22.53544,88.349884,"Bhowanipore, Kolkata - 700020, WB, India",CCU-S,Kolkata
22 Pally Sarodotsav,22.524482,88.347507,"Bakul Bagan, Bhowanipore, Kolkata, West Bengal 700025",CCU-S,Kolkata
25 Pally Sarbojonin Durgastov Samity Khidderpore,22.539205,88.326445,"Gangadhar Babu Ln, Calcutta Medical College, Khidirpur, Kolkata, West Bengal 700012",CCU-S,Kolkata
3 No Mahajati Nagar Durga Puja,22.6858044,88.3807243,"Sodepur, Kamarhati - 700109, WB, India",CCU-N,Kolkata
31 Pally Sadharan Durgotsab Samity,22.61038,88.38913,"5/3F,Raja Manindra Road,Paikpara,Kolkata-700037",CCU-N,Kolkata
37 Pally Sarbojanin Durgotsab O Saradiya Sammelan,22.574566,88.368107,"10, Dr Kartik Bose St, College Row, Baithakkhana, Kolkata-700009",CCU-C,Kolkata
4 No Milani,22.477933,88.37235,"Vidyasagar Park And Playground, Vidyasagar Colony, Naktala, Ward 100, Kolkata - 700047, WB, India",CCU-S,Kolkata
4-Sight Prestige Cultural Association,22.463722,88.383518,"150, Garia Station Rd, Barhans, Garia, Kolkata, West Bengal 700084",CCU-S,Kolkata
"41 Pally Club, Haridevpur",22.482926,88.338411,"276, Mahatma Gandhi Rd, Haridevpur, Paschim Putiary, Kolkata, West Bengal 700082",CCU-S,Kolkata
47 Pally Jubak Brinda Durga Puja,22.571486,88.358725,"90, Chittaranjan Ave, Calcutta Medical College, College Square, Kolkata-700012",CCU-C,Kolkata
48 Block Swiss Park Durgotsav Committee,22.505339,88.348958,"48/48, Purna Chandra Mitra Ln, Swiss Park, Tollygunge, Kolkata, West Bengal 700033",CCU-S,Kolkata
61 Pally Sarbojanin Durgotsav Committee,22.550213,88.359659,"55 Mcleod Street,Kolkata-700017",CCU-C,Kolkata
64 Pally,22.526789,88.346512,"Seagull, 31A, Shyama Prasad Mukherjee Road, Ward 72, Kolkata - 700053, WB, India",CCU-S,Kolkata
64 Pally Durgotsab Committee,22.520583,88.347567,"28C, Satish Mukherjee Road, Manoharpukur, Kalighat, Kolkata, West Bengal 700026",CCU-S,Kolkata
66 Pally Sarbojanin Durgostav Committee,22.518009,88.342777,"No. 14A, Nepal Bhattacharjee St, Dharamdas Lane, Anami Sangha, Kalighat, Kolkata, West Bengal 700026",CCU-S,Kolkata
68 Pally,22.527443,88.346184,"Seagull, 31A, Shyama Prasad Mukherjee Road, Bhowanipore, Kolkata - 700025, WB, India",CCU-S,Kolkata
70 Pally Sarbojanin Durga Puja [Kasba Anchalik Yubak Brinda],22.519275,88.373638,"287 B. B. Chatterjee Road ,Kolkata 700042",CCU-S,Kolkata
74 Pally,22.539438,88.325729,"Manali Banerjee Road, Ward 77, Kolkata - 700022, WB, India",CCU-S,Kolkata
74 Pally Sarbojanin Durgotsab Kidderpore,22.539748,88.32528,"5B, Monilal Banerjee Rd, Khidirpur, Kolkata, West Bengal 700023",CCU-S,Kolkata
77 Palli,22.504271,88.367607,"Dhakuria, Kolkata - 700068, WB, India",CCU-S,Kolkata
95 Pally,22.507622,88.362953,"Jodhpur Park, Kolkata - 700068, WB, India",CCU-S,Kolkata
95 Pally Jodhpur Park,22.508361,88.362913,"70A, Rahim Ostagar Rd, Jodhpur Park, Kolkata, West Bengal 700068",CCU-S,Kolkata
97 Palli Bharatmata Puja,22.486988,88.344527,"23 M . N . Sen Lane, MN Sen Ln, Kudghat, Tollygunge, Kolkata, West Bengal 700040",CCU-S,Kolkata
AA Block,22.5917995,88.39736,"AA Block, Bidhannagar - 700067, WB, India",CCU-E,Kolkata
AB Block,22.593313,88.3997852,"241, 1st Cross Road, Sector I, Bidhannagar - 700067, WB, India",CCU-E,Kolkata
AB Block Abashik Sangha,22.593879,88.401903,"AB Block, Sector 1, Salt Lake City, Kolkata, West Bengal 700064",CCU-E,Kolkata
AC Block,22.5948385,88.4034229,"130, 1st Avenue, Sector I, Bidhannagar - 700064, WB, India",CCU-E,Kolkata
AE Block,22.6008801,88.4119096,"Sector I, Bidhannagar - 700064, WB, India",CCU-E,Kolkata
AE Part 1 Block Committee,22.598575,88.409369,"AE-059, AE Block, Sector 1, Salt Lake City, Kolkata- 700064",CCU-E,Kolkata
AG Block,22.5995094,88.4240305,"Sector II, Bidhannagar - 700101, WB, India",CCU-E,Kolkata
AG Block Durga Puja,22.598204,88.423222,"AG Block, Sector II, Salt Lake City, Bidhannagar, West Bengal 700091",CCU-E,Kolkata
AH Block,22.5965541,88.4264543,"Sector II, Bidhannagar - 700101, WB, India",CCU-E,Kolkata
AJ Block,22.5921092,88.4288779,"Sector II, Bidhannagar - 700101, WB, India",CCU-E,Kolkata
AK Block,22.5891537,88.4313014,"Sector II, Bidhannagar - 700102, WB, India",CCU-E,Kolkata
AL Block,22.5861982,88.4337248,"175, Bidhannagar - 700135, WB, India",CCU-E,Kolkata
Aaikatan Sarbojanin Durgotsab,22.474439,88.321434,"Dhar Para, Netaji Pally, Purba Barisha, Kolkata, West Bengal 700063",CCU-S,Kolkata
Abasar Sarbojonin,22.527562,88.348897,"Rakhal Mukherjee Road, Ward 72, Kolkata - 700053, WB, India",CCU-S,Kolkata
Abasarika Club,22.508394,88.369281,"Dakuria Kali Bari Lane, Dhakuria, Kolkata - 700031, WB, India",CCU-S,Kolkata
Acharya Prafulla Sangha,22.490906,88.313275,"P-7, Dr Akshay Kumar Paul Rd, Shimultala, Gopinagar, Behala, Kolkata, West Bengal 700034",CCU-S,Kolkata
Adarsha Pally Sarbojanin Durgotsav Committee,22.499953,88.327701,"No 165, Roy Bahadur Rd, Buroshibtalla, Behala, Kolkata, West Bengal 700034",CCU-S,Kolkata
Adarsha Sangha Sarbojanin,22.591235,88.300301,"Sastitala, 711104, Howrah Mangol Hat, Santragachi, Ramrajatala, Howrah, West Bengal 711104",HWH,Kolkata
Adhar Laal Sen,22.596865,88.358915,"Golak Dutta Ln, Kashi Mitra, Kolkata - 700003, WB, India",CCU-N,Kolkata
Adhibasi Brinda (Kanai Dhar Lane),22.572353,88.365262,"25/8A, Kanai Dhar Lane Kolkata, Kolkata, West Bengal 700012",CCU-C,Kolkata
Adi Babubagan,22.507975,88.370909,"52 Babubagan Lane, Dhakuria, Kolkata-700039",CCU-S,Kolkata
Adi Ballygunge,22.529564,88.37265,"Bondel Road Flyover, Ballygunge, Kolkata - 700042, WB, India",CCU-S,Kolkata
Adi Ballygunge Sarbojanin Durga Puja Parishad,22.516887,88.371526,"71, Ballygunge Gardens Kolkata 700029",CCU-S,Kolkata
Adi Dakshin Kalikata Barowari Samittee,22.516787,88.343197,"Rash Behari, Sahanagar, Kalighat, Kolkata, West Bengal 700026",CCU-S,Kolkata
Adi Debensen Road Sarbojonin Durgotsav Committee,22.6849435,88.3863676,"Sodepur, Kamarhati - 700109, WB, India",CCU-N,Kolkata
Adi Lake Palli Club,22.514823,88.349521,"Adi Lake Palli Club,, Lake Place Road, Kalighat, Kolkata, West Bengal 700029",CCU-S,Kolkata
Adi Tarapukur Durgotsav Samity,22.6859462,88.3867961,"Sodepur, Kamarhati - 700109, WB, India",CCU-N,Kolkata
Agarpara Kalyan Samity Club,22.6840908,88.3831329,"Kamarhati - 700109, WB, India",CCU-N,Kolkata
Agarpara Youth Recreation Centre Durgotsab,22.684524,88.3726735,"Sodepur, Kamarhati - 700058, WB, India",CCU-N,Kolkata
Agradoot Durga Mandir,22.56999,88.311158,"700,, Sarat Chatterjee Rd, Mandirtala, Naora, Shibpur, Howrah, West Bengal 711102",HWH,Kolkata
Agradoot Durgotsab Samity,22.522025,88.369187,"1A, Cornfield Road, Ballygunge, Kolkata 700019",CCU-S,Kolkata
Agradut Udaya Sangha,22.533835,88.341946,"32B, D.N.Ghosh Road, Kolkata, West Bengal 700025",CCU-S,Kolkata
Ahiritola Jubak Brinda,22.5944,88.358788,"Nimu Gossain Lane, Shobha Bazar, Kolkata - 700003, WB, India",CCU-N,Kolkata
Ahiritola Sarbajanin Sarodotsab,22.594882,88.357176,"172/C, BK Paul Ave, Ahiritola, Beniatola, Kolkata, West Bengal 700005",CCU-N,Kolkata
Ahiritola Sarbojanin Durgotsav Samity,22.592818,88.356809,"30/C, B.K. Pal Avenue, Kolkata, West Bengal 700005",CCU-N,Kolkata
Aikya Sammilani,22.504429,88.318611,"Behala BalanAnda Brahmachari Hospital And Research Center, 151, Diamond Harbour Road, New Alipore, Kolkata - 700034, WB, India",CCU-S,Kolkata
Ajeya Sanghati,22.480887,88.337692,"47, Mahatma Gandhi Rd, Haridevpur, Paschim Putiary, Kolkata, West Bengal 700082",CCU-S,Kolkata
Ajoynagar Sarbojanin Durgotsav Society,22.488852,88.396304,"Ajoy Nagar, Mukundapur, Kolkata, West Bengal 700075",CCU-S,Kolkata
Akra Sarbojanin Durgotsab Commitee,22.518211,88.238514,"Akra, Santoshpur, Kolkata, West Bengal 700140",CCU-S,Kolkata
Akrur Dutta Dalanbari,22.565216,88.359976,"Akrur Dutta Ln, Chandni Chowk, Kolkata - 700013, WB, India",CCU-N,Kolkata
Alipore Sarbojanin Durgotsav Committee,22.518574,88.335492,"27/1 A, Alipore Road, Alipore, Kolkata, West Bengal 700027",CCU-S,Kolkata
Amarabati Durga Puja Committee,22.523788,88.392602,"220, Naskarhat Rd, Amrabati, Kasba, Kolkata, West Bengal 700039",CCU-S,Kolkata
Amarabati Kalyan SamitiÂ ,22.6986888,88.3884876,"Sodepur, Khardaha - 700110, WB, India",CCU-N,Kolkata
Amardip Sangha,22.484463,88.330514,"192, Motilal Gupta Rd, Sodepur Kalitala, Sukanta Pally, Barisha, Kolkata, West Bengal 700082",CCU-S,Kolkata
Amarendra Bhavan,22.501385,88.318826,"4/1, Roy Bahadur Rd, Auddy",CCU-S,Kolkata
Ambagan Durga Puja,22.590099,88.240726,"Kamrangu, Andul, Mahiari, West Bengal 711302",HWH,Kolkata
Amherst Sarbojanin Durgotsab,22.57877,88.369713,"50, Raja Ram Mohan Sarani, Machuabazar, Kolkata, West Bengal 700009",CCU-C,Kolkata
Amra Sabai - Ramdulal Sarkar Street,22.588011,88.366857,"Ramdulal Sarkar Street, Girish Park, Kolkata - 700003, WB, India",CCU-N,Kolkata
Amritlal Dawn Debottar Estate,22.596382,88.361089,"Daw Ln, Ward 19, Kolkata - 700037, WB, India",CCU-N,Kolkata
Ananda Complex Residential Durga Puja Committee,22.616942,88.383574,"Ananda Complex, Nilmoni Dey Ln, Mitrabagan Basti, Paikpara, Kolkata, West Bengal 700002",CCU-N,Kolkata
Andul Dutta Chaudhury Bari Durga Puja,22.584944,88.232921,"Dutta Chaudhury Bari Ln, Andul, Argari, West Bengal 711302",HWH,Kolkata
Anupama Housing Complex,22.629539,88.432876,"Rajarhat Gopalpur, Bidhannagar - 700052, WB, India",CCU-N,Kolkata
Ariadaha Jubak Sangha,22.6714013,88.3634263,"Baranagar - 700057, WB, India",CCU-N,Kolkata
Arjunpur Amra Sabai Club,22.62433,88.42446,"Radha Krishna Sweets, NB - 116, E Mall Rd, Bidhannagar - 700080, WB, India",CCU-N,Kolkata
Arunachal Sarbojanin Durgotsab Committee,22.692721,88.384381,"Arunachal, Sodepur, Khardaha, West Bengal 700110",CCU-N,Kolkata
Arupara Milan Sangha - Howrah,22.597847,88.300949,"Howrah - 711112, WB, India",HWH,Kolkata
Aswininagar Sarbojanin Durgotsav [Abhiyatrik Club],22.606977,88.43276,"Aswininagar, Baguiati, Kolkata, West Bengal 700159",CCU-E,Kolkata
Azadgarh,22.484604,88.356171,"Minapara Road, Aswini Nagar, Kolkata - 700092, WB, India",CCU-S,Kolkata
B. N. B. L. Netaji Sangha,22.661635,88.389285,"Nagendra Bhattacharjee Lane, Goyal Para, Belghoria , Kolkata 700056",CCU-N,Kolkata
BA Block,22.585133,88.459621,"BA Block, Action Area I,New Town, West Bengal 700156",CCU-E,Kolkata
BA Block,22.5888325,88.3985726,"BA Block, Bidhannagar - 700054, WB, India",CCU-E,Kolkata
BB Block Residents Association,22.591803,88.402764,"BB Block, Sector 1, Salt Lake City, Kolkata, West Bengal 700064",CCU-E,Kolkata
BC Block,22.5929856,88.4043323,"225, 1st Avenue, Sector I, Bidhannagar - 700064, WB, India",CCU-E,Kolkata
BD Block,22.5948864,88.4082726,"Sector I, Bidhannagar - 700064, WB, India",CCU-E,Kolkata
BD Block Sarbojanin Durgotsab,22.595025,88.407549,"BD Block, Sector 1, Salt Lake City, Kolkata, West Bengal 700064",CCU-E,Kolkata
BE (East) Puja Committee,22.597271,88.413822,"BE Block, Sector 1, Salt Lake City, Kolkata, West Bengal 700064",CCU-E,Kolkata
BE Block,22.5979131,88.4131218,"393, Sector I, Kolkata - 700064, WB, India",CCU-E,Kolkata
BG Block,22.5953985,88.4225156,"Sector II, Bidhannagar - 700101, WB, India",CCU-E,Kolkata
BH Block Society,22.593244,88.425314,"BH Block, Sector II, Salt Lake City, Kolkata, West Bengal 700091",CCU-E,Kolkata
BK Block,22.5876407,88.4288779,"Sector II, Bidhannagar - 700102, WB, India",CCU-E,Kolkata
BK Paul Park Sarbojanin Durgotsav,22.5958882,88.3596035,"19, BK Paul Avenue, Kolkata- 700005, West Bengal",CCU-N,Kolkata
BL Block,22.5846852,88.4313014,"Sector V, Bidhannagar - 700102, WB, India",CCU-E,Kolkata
BL Block Durga Puja,22.585153,88.430011,"BL Block,Sector-II, Salt Lake City, Kolkata, West Bengal 700091",CCU-E,Kolkata
Babubagan Club,22.507931,88.369024,"14, Babu Bagan Ln, Dhakuria, Babu Bagan, Selimpur, Kolkata, West Bengal 700031",CCU-S,Kolkata
Badamtala Ashar Sangha,22.517936,88.34375,"5, Nepal Bhattacharjee St, Kalighat, Kolkata, West Bengal 700026",CCU-S,Kolkata
Badan Chandra Roy Bari,22.575254,88.358339,"Colootola Street, Central Avenue 2, Kolkata - 700073, WB, India",CCU-N,Kolkata
Baganbari Athletic Club,22.571163,88.395721,"73, Narkel Danga Main Road , Kolkata - 700054",CCU-E,Kolkata
Bagbadini Bayam Samity,22.584392,88.327829,"10, Lakshman Das Lane, Kadam Tala, Howrah, West Bengal 711101",HWH,Kolkata
Bagbazar Sarbajanin Durgotsav,22.604635,88.366046,"Bagbazar St, Baghbazar, Kolkata, West Bengal 700003",CCU-N,Kolkata
Baghajatin B And C Block Durgotsav Committee [Baghajatin Sporting Club Durga Puja],22.484086,88.376085,"Baghajatin C Block, Chittaranjan Colony 6, Maidan, Kolkata, West Bengal 700092",CCU-S,Kolkata
Baghajatin Park Housing Society Puja Committee,22.47953,88.392807,"Krishak Pally, Pancha Sayar, Kolkata, West Bengal 700094",CCU-S,Kolkata
Baghajatin Udayan Sangha,22.485561,88.371257,"A/86/1, Bijoygarh, Layalka, Jadavpur, Kolkata, West Bengal 700092",CCU-S,Kolkata
Baghbazaar Haldarbari Durgapuja,22.603509,88.36674,"Bag Bazar, Kolkata - 700004, WB, India",CCU-N,Kolkata
Baghbazar Durga Puja Pandal,22.602178,88.372078,"Brindaban Pal Ln, Bidhan Sarani, Baghbazar, Kolkata, West Bengal 700003",CCU-N,Kolkata
Baghbazar Jagodharti,22.603493,88.371101,"Pasupati Bose Ln, Chitpur North, Kolkata - 700004, WB, India",CCU-N,Kolkata
Baghbazar Palli Puja O Pradarshani Durga Puja,22.602818,88.367354,"P/, 12, Bagbazar St, Bidhan Sarani, Baghbazar, Kolkata, West Bengal 700003",CCU-N,Kolkata
Baghbazar Sarbojonin Durga Puja,22.604677,88.367247,Sovabazar, Baghbazar,Kolkata
Baishali Pally Adhibasi Brinda,22.509778,88.390372,"P.Majumdar Road, Baishali Pally, Kolkata-700078",CCU-S,Kolkata
Baishnab Ghata Jatra Suru,22.470576,88.377922,"101B, Raja Subodh Chandra Mallick Rd, Baishnabghata, Garia, Kolkata, West Bengal 700047",CCU-S,Kolkata
Baishnabghata Pashimpara Sarbojanin Durgotsab,22.470842,88.37186,"5/1, Baishnabghata Bye Lane, Naktala, Garia, Kolkata-700047",CCU-S,Kolkata
Baishnabghata Patuli Upanagari,22.471201,88.380142,"Baghajatin, Kolkata - 700086, WB, India",CCU-S,Kolkata
Baishnabghata Patuli Upanagori Sarbojanin Durgotsab Committee,22.473449,88.387067,"J 77 ,Baishnabghata Patuli Township, Kolkata 700094",CCU-S,Kolkata
Baisnabdas Mallick Bari,22.587439,88.354258,"Darpanarayan Tagore St, Jagganath Ghat, Kolkata - 700007, WB, India",CCU-N,Kolkata
Bakul Bagan Sarbojanin,22.52673,88.347397,"Bhowanipore, Kolkata - 700025, WB, India",CCU-S,Kolkata
"Balak Brinda Club (Prafulla Kanan, Kestopur)",22.602103,88.424894,"AC 62, Prafulla Kanan Rd, Rabindrapally, Kestopur, Kolkata, West Bengal 700101",CCU-E,Kolkata
Balak Sangha,22.7046903,88.3721592,"Sodepur, Khardaha - 700114, WB, India",CCU-N,Kolkata
Balaka Abasan Puja Committee,22.574399,88.453674,"Balaka Abasan,CG Block, Action Area I, Newtown, Kolkata- 700156",CCU-E,Kolkata
Balaram Dey Street Dutta Bari,22.587589,88.362649,"159, Balaram Dey St, Ram Bagan, Kolkata, West Bengal 700006",CCU-N,Kolkata
Balia Baishakhi Sangha,22.465184,88.40057,"Garia Station Road, West Balia, Kolkata-700084",CCU-S,Kolkata
Bally Deshbandhu Club Durga Puja Committee (Bally House),22.644727,88.351644,"368, Grand Trunk Rd, Bally, Howrah, West Bengal 711201",HWH,Kolkata
Bally Jora-Aswathatala Sarbojonin,22.64695,88.341847,"78, Goswami Para Rd, Bally, Howrah, West Bengal 711201",HWH,Kolkata
Ballygunge Cultural Association,22.51614,88.355745,"Lake Terrace, Lake Terrace, Ballygunge, Kolkata, West Bengal 700029",CCU-S,Kolkata
Ballygunge Pally Sarbojanin Durgotsab Committee,22.526391,88.357686,"8B , Dover Road ,Kolkata-700026",CCU-S,Kolkata
Ballygunge Purba Pally,22.522062,88.371234,"276/2 P. C. Sarkar, Rash Behari, Rash Behari Ave, Ekdalia, Ballygunge, Kolkata, West Bengal 700019",CCU-S,Kolkata
Bandhab Pathagar,22.7019734,88.3680975,"Sodepur, Khardaha - 700114, WB, India",CCU-N,Kolkata
Bandhab Sammilani,22.507818,88.367661,"Maharaja Tagore Road, Dhakuria, Kolkata - 700031, WB, India",CCU-S,Kolkata
Bandhudal Sporting Club Durga Puja,22.633153,88.377695,"?Nainan Para, Baranagar, Kolkata, West Bengal 700036",CCU-N,Kolkata
Bandhusree,22.493447,88.316485,"Behala, Kolkata - 700034, WB, India",CCU-S,Kolkata
Banerjee Bagan Sarbojanin Durgotsab,22.608067,88.34801,"21, Banerjee Bagan Ln, Salkia, Howrah, West Bengal 711106",HWH,Kolkata
Bangali Sangha,22.65379,88.431569,"Khalisha Kota, Birati, Kolkata, West Bengal 700134",CCU-N,Kolkata
Bangur Avenue C Block Sarbojanin Durgotsav,22.603711,88.4104167,"117/1, Block- C, Bangur Avenue, Kolkata- 700055, West Bengal",CCU-N,Kolkata
Bangur Avenue Protirodh Bahini,22.607826,88.409335,"Bangur Avenue, P-48, Block A, Kolkata, 700055",CCU-N,Kolkata
Bangur Avenue Protirodh Bahini Sarbojanin Durgotsav,22.6069,88.409246,"P- 48, Bangur Avenue, Block- C, Bangur, Kolkata- 700055, West Bengal",CCU-N,Kolkata
Bani Mandir Durga PujaÂ ,22.6658251,88.3807199,"Bani Mandir Park, Baranagar - 700058, WB, India",CCU-N,Kolkata
Bankra Yuba Sanmilani,22.599971,88.284537,"Satashi Pal Para, Old Jagacha, Howrah, West Bengal 711104",HWH,Kolkata
Bansdroni Roynagar Unnayan Samity,22.473553,88.360845,"9, Naskarpara, Tollygunge, Bansdroni, Kolkata-700070",CCU-S,Kolkata
Bansdroni Sammlita Sarbojanin Durgotsav Committee,22.473651,88.358048,"10, H.L. Sarkar Road, Bansdroni, Kolkata-700070",CCU-S,Kolkata
Bansdroni Sarbojaneen Durgotsav,22.474243,88.357882,"Hirendralal Sarkar Rd, Bansdroni Government Colony, Purba Putiary, Kolkata-700070",CCU-S,Kolkata
Bantra Sammilani,22.597341,88.318765,"43, Chatterjee Para Ln, Tikiapara, Howrah, West Bengal 711101",HWH,Kolkata
Bantra Sarbojanin Durgotsav,22.5935,88.322085,"Kadamtala, Tikiapara, Howrah, West Bengal 711101",HWH,Kolkata
Barisha Club,22.481256,88.313214,"Santosh Roy Rd, Sakher Bazar, Purba Barisha, Kolkata, West Bengal 700008",CCU-S,Kolkata
Barisha Janakalyan Sangha Durgotsav Committee,22.484934,88.313014,"18, Diamond Harbour Rd, Behala Chowrasta, Barisha, Sakher Bazar, Paschim Barisha, Kolkata-700008",CCU-S,Kolkata
Barisha Kumarpara Youngs Club,22.481595,88.317097,"6/7, Motilal Gupta Rd, Sodepur, Purba Barisha, Kolkata, West Bengal 700008",CCU-S,Kolkata
Barisha Maitree Sangha Durgotsab,22.484116,88.31754,"Nabalia Para Rd, Barisha, Kolkata, West Bengal 700008",CCU-S,Kolkata
Barisha Milan Mandir,22.487279,88.313958,"4, Biren Roy Rd, Behala Chowrasta, Bata Colony, Barisha, Kolkata, West Bengal 700008",CCU-S,Kolkata
Barisha Milani Sangha Durga Puja,22.477121,88.308909,"177, Narayan Roy Rd, Sakher Bazar, Paschim Barisha, Kolkata, West Bengal 700063",CCU-S,Kolkata
Barisha Nabin Sangha,22.483312,88.311062,"Sakher Bazar, Paschim Barisha, Kolkata, West Bengal 700008",CCU-S,Kolkata
Barisha Netaji Sangha,22.485962,88.315179,"16/a/b, Raja Rammohan Roy Rd, Barisha, Kolkata, West Bengal 700008",CCU-S,Kolkata
Barisha Players Corner,22.486588,88.312614,"Behala Chowrashta, Biren Roy Road West, Kolkata - 700034, WB, India",CCU-S,Kolkata
Barisha Sabeda Bagan Club,22.488243,88.316653,"25/A, Raja Rammohan Roy Rd, 18 Bigha, Muradpur, Barisha, Kolkata, West Bengal 700008",CCU-S,Kolkata
Barisha Sabuj Sathi Club,22.47821,88.310753,"Kolkata - 700063, WB, India",CCU-S,Kolkata
Barisha Sarbojanin Durgotsab,22.4798465,88.3079846,"35, K K Roychowdhury Rd, Subodh Pally, Paschim Barisha, Kolkata, West Bengal 700008",CCU-S,Kolkata
Barisha Saterpalli Sammilani Durga Puja,22.479781,88.304041,"12/12, Sashan Kalitala Road, Behala, Kolkata-700008",CCU-S,Kolkata
Barisha Shakti Sangha,22.474384,88.315862,"92, Vidyasagar Sarani, Nutan Pally, Purba Barisha, Kolkata, West Bengal 700008",CCU-S,Kolkata
Barisha Tapoban,22.476431,88.310503,"Chandi Charan Ghosh Rd, Silpara, Purba Barisha, Kolkata, West Bengal 700008",CCU-S,Kolkata
Barisha Tarun Tirtha,22.476515,88.31823,"Kolkata - 700008, WB, India",CCU-S,Kolkata
Barisha Tarun Tritha,22.484503,88.319269,"3, Kalipada Mukherjee Rd, Sakher Bazar, Barisha, Kolkata, West Bengal 700008",CCU-S,Kolkata
Barisha Udayan Pally Sabojanin Durga Puja,22.475241,88.309527,"Ward No.125, Diamond Harbour Rd, Udayan Pally, Barisha, Kolkata, West Bengal 700008",CCU-S,Kolkata
Barisha Youth Club,22.478965,88.30259,"19, Srikrishna Pally, Paschim Barisha, Kolkata, West Bengal 700063",CCU-S,Kolkata
Barisha Yubak Brinda,22.486077,88.312052,"13, Biren Roy Rd W, Behala Chowrasta, Sakher Bazar, Paschim Barisha, Kolkata, West Bengal 700008",CCU-S,Kolkata
Baruipur Pragati Sangha,22.367221,88.43189,"Subuddhipur, Arup Bhadra Sarani, Baruipur, Kolkata, West Bengal 700144",CCU-S,Kolkata
Barun Sporting Club,22.6931176,88.3699894,"Sodepur, Kamarhati - 700058, WB, India",CCU-N,Kolkata
Basak Bagan Sarbojanin Durgotsab,22.612505,88.398161,"30/1-A, Basak Bagan, South Dum Dum, Kolkata, West Bengal 700048",CCU-N,Kolkata
Batanagar Newland Puja Committee,22.505262,88.22905,"Das Para, Maheshtala, West Bengal 700140",CCU-S,Kolkata
Batore 41 er Pally Durga Puja,22.577778,88.298761,"10/3, Baksara Rd, Betore, Baruipara, Ichapur, Howrah, West Bengal 711104",HWH,Kolkata
Bazar Para Sarbojanin Durgapuja,22.7079714,88.3657954,"Sodepur, Khardaha - 700115, WB, India",CCU-N,Kolkata
Beadon Street Sarbojanin,22.58916,88.368284,"Shobha Bazar East, Kolkata - 700003, WB, India",CCU-N,Kolkata
Beadon Street Sarbojanin Durgotsab,22.589569,88.366479,"62/5, Abhedananda Rd, Manicktala, Darjipara, Kolkata, West Bengal 700006",CCU-N,Kolkata
Behala 11 Pally Durga Puja [11 Pally Youth Association],22.498462,88.321463,"69, Satyen Roy Rd, Indrajit Pally, Behala, Kolkata, West Bengal 700034",CCU-S,Kolkata
Behala 29 Palli,22.507343,88.322426,"Behala BalanAnda Brahmachari Hospital And Research Center, 151, Diamond Harbour Road, New Alipore, Kolkata - 700034, WB, India",CCU-S,Kolkata
Behala Adarsha Pally,22.499989,88.327632,"Behala, Kolkata - 700053, WB, India",CCU-S,Kolkata
Behala Arcadia Sarbojanin,22.4942,88.315163,"Behala, Kolkata - 700034, WB, India",CCU-S,Kolkata
Behala Arounoday Samity,22.501411,88.301092,"Rabindra Nagar No 2, Rabindra Nagar, Behala, Kolkata, West Bengal 700060",CCU-S,Kolkata
Behala Buroshibtala Janakalyan Sangha,22.502289,88.329735,"Behala, Kolkata - 700053, WB, India",CCU-S,Kolkata
Behala Buroshibtala Janakalyan Sangha Durga Puja,22.502507,88.332437,"Manmohan Banerjee Road, Buroshibtalla, Behala, Kolkata, West Bengal 700038",CCU-S,Kolkata
Behala Club,22.505381,88.314308,"Behala Club, Banamali Naskar Road, Behala, Kolkata - 700060, WB, India",CCU-S,Kolkata
Behala Club Sarbojanin Durgotsav Committee,22.504681,88.315704,"58/1/1, Banamali Naskar Road, Behala, Kolkata, West Bengal 700060",CCU-S,Kolkata
Behala Debdaru Fatak,22.5026506,88.3174747,"Debdaru Fatak, Ward 131, Kolkata - 700034, WB, India",CCU-S,Kolkata
Behala Friends Gosaipara Sarbojanin,22.501122,88.320429,"Auddy Bagan Basti, Behala, Kolkata, West Bengal 700034",CCU-S,Kolkata
Behala Mukul Sangha,22.503359,88.313705,"Behala, Kolkata - 700034, WB, India",CCU-S,Kolkata
Behala Nutan Dal,22.500394,88.320315,"16, Sashibhusan Mukherejee Raod, Kolkata, West Bengal 700034",CCU-S,Kolkata
Behala Nutan Sangha,22.502183,88.319064,"375, Diamond Harbour Rd, Gholeshapur, Behala, Kolkata, West Bengal 700034",CCU-S,Kolkata
Behala Pathak Para Sarbojonin Durgotsav,22.506745,88.320911,"Pathak Para, Behala, Kolkata, West Bengal 700034",CCU-S,Kolkata
Behala Sangathani Durga Puja Committee,22.496608,88.307447,"P/149, B G Press Colony, Behala, Kolkata, West Bengal 700034",CCU-S,Kolkata
Behala Sanjib Palli,22.487004,88.309076,"Ho Chi Minh Sarani, Sanjib Pally, Behala, Kolkata, West Bengal 700034",CCU-S,Kolkata
Behala Sree Sangha,22.497669,88.320183,"Behala, Kolkata - 700034, WB, India",CCU-S,Kolkata
Behala Trishakti Sangha,22.498367,88.318985,"Nafar Chandra Das Rd, Auddy Bagan Basti, Behala, Kolkata, West Bengal 700034",CCU-S,Kolkata
Behala Youngmens Association,22.506932,88.32487,"69, Joykrishna Paul Rd, Sahapur, New Alipore, Kolkata, West Bengal 700038",CCU-S,Kolkata
Bejoypur Sarbojanin Durga Puja,22.694359,88.391579,"A/49, Anand Loke Rd, H B Town, Sodepur, Barrackpore, West Bengal 700114",CCU-N,Kolkata
Beleghata 33 No Pallibasibrinda,22.568204,88.391848,"P-225/1, C.I.T Road, Kolkata-700010",CCU-E,Kolkata
Beleghata Nabamilan,22.565353,88.396364,"P -81,, 10, CIT Rd, Subhas Sarobar Park, Phool Bagan, Beleghata, Kolkata- 700010",CCU-E,Kolkata
Beleghata Sandhani,22.5648434,88.3961574,"Kolkata - 700010, WB, India",CCU-E,Kolkata
Beleghata Santi Sangha,22.561941,88.391229,"26/H/4, Barwaritala Rd, Kulia, Beleghata, Kolkata, West Bengal 700010",CCU-C,Kolkata
Beleghata Sarkar Bazar Vivekananda Sangha Durga Puja,22.568187,88.386046,"97, KG Bose Sarani, Kundu Bagan, Beleghata, Kolkata, West Bengal 700085",CCU-C,Kolkata
Belgachia Sadharan Durgatsab,22.609217,88.383423,"Uttarpalli Playground, Nitya Gopal Chatterjee Lane, Paikpara, Kolkata - 700037, WB, India",CCU-N,Kolkata
Belgachia Sadharan Durgotsab Committee,22.607554,88.383448,"Talapark Circus, Maidan, Kolkata, West Bengal 700037",CCU-N,Kolkata
Belgachia Yuba Sammilani,22.602764,88.378991,"Bhairab Mukherjee Lane,Kolkata - 700 004.",CCU-N,Kolkata
Beliaghata 33 No Palli,22.566563,88.393852,"Narkeldanga, Kolkata - 700010, WB, India",CCU-E,Kolkata
Beliaghata 33 Palli,22.568894,88.395676,"P-225/1, C.I.T Road, Subhas Sarobar Park, Phool Bagan, Beleghata, Kolkata-700010",CCU-E,Kolkata
Beliaghata 33 Pally Adhibasibrindo Sarbojanin Durgotsav,22.5687627,88.3914276,"94, Hem Chandra Naskar Road, Subhas Sarobar Park, Phool Bagan, Beleghata, Kolkata- 700010, West Bengal",CCU-E,Kolkata
Beliaghata Shibtala Adhibasi Brinda,22.564395,88.377405,"Shibtala Ln, Seal Lane, Tangra, Kolkata-700015",CCU-C,Kolkata
Beltala Sarbojanin Durgotsab,22.481865,88.372325,"4/64B, Vidyasagar Kolkata - 700047",CCU-S,Kolkata
Beltala Shakti Sangha,22.5256,88.351311,"Beltala Rd, Bakul Bagan, Bhowanipore, Kolkata, West Bengal 700026",CCU-S,Kolkata
Bengal Boys Training Association,22.518345,88.341363,"Kalighat Rd, Anami Sangha, Kalighat, Kolkata, West Bengal 700026",CCU-S,Kolkata
Bengal United Club,22.512084,88.347812,"18, Kabir Rd,Lake Range, Kalighat,Kolkata, West Bengal 700026",CCU-S,Kolkata
Beniapara Sarbojanin Durgatsav,22.58417,88.331142,"12, Sadar Boxi Lane, Howrah, India 711101",HWH,Kolkata
Betarpally Cultural Association,22.480255,88.348795,"9/8 C, Chandi Ghosh Rd, Kudghat, Moore Avenue, Tollygunge, Kolkata, West Bengal 700040",CCU-S,Kolkata
Bhagabati Park Durga Puja Committee,22.61629,88.41213,"100 Jessore Road, Bhagabati Park Kolkata - 700 074",CCU-N,Kolkata
Bhai Bhai Sangha Sarbojanin,22.483172,88.181112,"38/c, Pandit Moti Lal Nehru Road, Samanta Para, Budge Budge, Kolkata, West Bengal 700137",CCU-S,Kolkata
Bharat Mata,22.488014,88.36248,"Bijoygarh Math, Arabinda Nagar, Kolkata - 700084, WB, India",CCU-S,Kolkata
Bharatiya Tarun Sangha,22.588852,88.36371,"9B Ashutosh Dey Lane,Near Sekar Bhawan Kolkata -700006",CCU-N,Kolkata
Bhawanipur 75 Pally,22.5332948,88.3454998,"Debendra Ghosh Road, Bhowanipore, Kolkata - 700025, WB, India",CCU-S,Kolkata
Bhowanipore De Bari Durga Puja,22.535016,88.343559,"26/E, Chandra Nath Chatterjee Street, Bhowanipore, Kolkata ? 700025",CCU-S,Kolkata
Bhowanipore Mitra Bari Durga Puja,22.532572,88.349327,"13, Paddapukur Road, Bhowanipore, Kolkata 700020.",CCU-S,Kolkata
Bhowanipur Muktadal,22.527443,88.343616,"Harish Mukherjee Rd, Jatin Das Park, Patuapara, Bhowanipore, Kolkata, West Bengal 700025",CCU-S,Kolkata
Bhowanipur Ritwik Club Durga Puja Committee,22.533087,88.346934,"76 A/76B, Padda PUkur Road, Bhowanipore, Kolkata, West Bengal 700020",CCU-S,Kolkata
Bhowanipur Sanatan Dharmatsahini Sabha,22.529031,88.342999,"33, Balaram Bose Ghat Road, Kolkata-700025",CCU-S,Kolkata
Bhowanipur Sarbojanin Durgotsav,22.532387,88.3435,Harish Mukherjee Road Kol- 700025,CCU-S,Kolkata
Bhowanipur Students Club Sarbojanin Durga Puja,22.534287,88.338926,"7/1, Bijoy Basu Rd, Bhowanipore. Kolkata, West Bengal 70002",CCU-S,Kolkata
Bhowanipur Swadhin Sangha,22.531966,88.346481,"40B, Mahesh Chowdhury Street, Paddapukur, Bhowanipore, Kolkata, West Bengal 700025",CCU-S,Kolkata
Bhowanipur Udayan Club Durga Puja,22.528153,88.351379,"1, Benoy Bose Lane, Kolkata-700025",CCU-S,Kolkata
Bidhanpally Adhibasibrinda,22.467784,88.371933,117 Bidhan Pally Kolkata -700048,CCU-S,Kolkata
Bidhanpally Purbapara Sarbojanin Durgotsav Committee,22.468541,88.37241,"BIidhanpally, Garia, Kolkata-700084",CCU-S,Kolkata
Bijoypur Town Club,22.6941069,88.3922172,"Sodepur, Panihati - 700111, WB, India",CCU-N,Kolkata
Binayak Residency Durgotsav Committee,22.52479,88.370419,"6/5C, 6/5D & 7A, Anil Maitra Rd, Ballygunge Place, Ballygunge, Kolkata, West Bengal 700019",CCU-S,Kolkata
Bishalaxmitala Sarbojanin Durga Puja Committee,22.50926,88.315284,"8,Bishalaxmitala Road, Naskarpur, Behala, Kolkata, West Bengal 700060",CCU-S,Kolkata
Bose Barir Puja (Panihati),22.69322222,88.37097222,"Sodepur, Kamarhati - 700114, WB, India",CCU-N,Kolkata
Bosepukur Parijat Club Sarbojanin Durga Puja,22.523353,88.382366,"Bose Pukur Rd, Bosepukur, Kasba, Kolkata, West Bengal 700039",CCU-S,Kolkata
Bosepukur Sitala Mandir,22.516581,88.388023,"Loknath Pharmacy, 198, Rajdanga Purbapara RB Connector, Ward 107, Kolkata - 700078, WB, India",CCU-S,Kolkata
Bosepukur Sitala Mandir Durgotsab Committee,22.519241,88.38499,"Bosepukur Road,Kasba, 1/27, Kolkata, West Bengal 700042",CCU-S,Kolkata
Bosepukur Talbagan,22.517492,88.38533,"Rajkrishna Chatterjee Road, Kasbah North, Kolkata - 700039, WB, India",CCU-S,Kolkata
Bosepukur Talbagan Sarbojanin,22.516664,88.382412,"Tal Bagan, Bosepukur, Kasba, Kolkata, 700042",CCU-S,Kolkata
Brahmapur Harisava Sarbojanin Durgotsav,22.46566,88.36391,"46 Harisava Math, Brahmapur, N G Park, Bansdroni, Kolkata, West Bengal 700084",CCU-S,Kolkata
Brijee Unnayan Samity Durgotsab Committee,22.468466,88.384922,"West,, Briji Road, Sreerampur, Garia, Kolkata, West Bengal 700084",CCU-S,Kolkata
Brindaban Matri Mandir,22.582521,88.373226,"16, Brindaban Mullick First Lane., Sukhiya Street, Kolkata, West Bengal 700009",CCU-C,Kolkata
Brindabon Netaji Balak Sangha,22.585947,88.317319,"5,, 11/4, Brindaban Mullick Ln, Bantra, Ichapur, Howrah, West Bengal 711104",HWH,Kolkata
C N Roy Road Govt. Housing Estate Durga Puja Committee,22.530905,88.38752,"Chandra Nath Roy Rd, Tiljala, Topsia, Kolkata, West Bengal 700039",CCU-S,Kolkata
CB Block,22.5888806,88.4034229,"CB Block Park, Bidhannagar - 700048, WB, India",CCU-E,Kolkata
CD Block,22.5919194,88.409485,"265, Bidhannagar - 700048, WB, India",CCU-E,Kolkata
CE Block,22.5949341,88.4131218,"Jhupri Market, BE-56, BE Block, Kolkata - 700064, WB, India",CCU-E,Kolkata
CF Block Residents Association,22.594028,88.418076,"CF, CF Block, Sector 1, Salt Lake City, Kolkata, West Bengal 700064",CCU-E,Kolkata
CG Block,22.5920383,88.4216066,"Sector II, Bidhannagar - 700101, WB, India",CCU-E,Kolkata
CIT Park Goabagan Sarbojanin Durgotsav Samity,22.591168,88.372663,"10A, Sahitya Parishad Street, Kolkata ? 700006",CCU-N,Kolkata
CIT Sarbojanin,22.633426,88.377465,"Baranagar Police Station, 47, Barrackpore Trunk Road, Baranagar - 700090, WB, India",CCU-N,Kolkata
Capricorn Springfield Flat Owners Association (Pilot Bari),22.472149,88.356649,"Benoy Pally, Aurobindo Park, Kolkata, West Bengal 700070",CCU-S,Kolkata
Central Calcutta Youth Association Durga Puja Committee,22.563772,88.3625,"37, Gokul Boral St, Bowbazar, Kolkata, West Bengal 700016",CCU-C,Kolkata
Chakpara Jubak Brinda Sarbojanin Durgotsav,22.615008,88.317546,"Liluah, Chakpara, West Bengal 711204",HWH,Kolkata
Chakraberia Sarbojanin,22.533646,88.351891,"Chakraberia Trikon Park, Ward 70, Kolkata - 700019, WB, India",CCU-S,Kolkata
Chakraberia Sarbojanin Durgotsab,22.532162,88.349536,"58A, Chakraberia Road (North), Kolkata, West Bengal 700020",CCU-S,Kolkata
Chanditala Sarbojanin Durgotsab Samity,22.499808,88.330494,"186, Roy Bahadur Rd, Ajoy Nagar, Tara Park, Behala, Kolkata, West Bengal 700053",CCU-S,Kolkata
Chandranat Chatterjee Street Sarbojanin Durgotsab,22.534751,88.345869,"2/1 A, Chandranath Chatterjee Street, Bhawanipur, Kolkata - 700025",CCU-S,Kolkata
Chandranath Chatterjee Street,22.52669,88.345848,"Seagull, 31A, Shyama Prasad Mukherjee Road, Ward 72, Kolkata - 700053, WB, India",CCU-S,Kolkata
Chata Pora Banerjee Bari,22.6870535,88.3701678,"Sodepur, Kamarhati - 700058, WB, India",CCU-N,Kolkata
Chatterjee Colony Puja Committee,22.506416,88.330704,"P-130 A,S.N Roy Road,Kolkata-700038",CCU-S,Kolkata
Chetla Agrani Club,22.516266,88.336802,"14, Peary Mohan Roy Rd, Chetla, Kolkata, West Bengal 700027",CCU-S,Kolkata
Chetla Central Association,22.517737,88.334206,"33/4A, Chetla Central Rd, Chetla, Kolkata, West Bengal 700027",CCU-S,Kolkata
Chetla Sarbasadharaner Durgotsab,22.517326,88.339939,"Shop No-69/3B,, Chetla Rd, Kolkata, West Bengal 700027",CCU-S,Kolkata
Chorbagan Chatterjee House,22.582254,88.362941,"Muktaram Babu Ln, Machua Bazar, Kolkata - 700007, WB, India",CCU-N,Kolkata
Chorbagan Mitra Bari,22.582407,88.362429,"Muktaram Babu Street, Machua Bazar, Kolkata - 700007, WB, India",CCU-N,Kolkata
Chorbagan Seal Bagan,22.582938,88.359263,"Muktaram Babu Street, Machua Bazar, Kolkata - 700007, WB, India",CCU-N,Kolkata
Club Road Bylane Durga Puja Committee,22.7037187,88.3718286,"Sodepur, Khardaha - 700114, WB, India",CCU-N,Kolkata
College Square Sarbojanin Durgotsab Committee,22.574407,88.364361,"Lalbajar, College Square, Kolkata, West Bengal 700012",CCU-C,Kolkata
Colootala Dhar Bari,22.573947,88.357806,"Dendra Mullick Ln, Central Avenue 2, Kolkata - 700073, WB, India",CCU-N,Kolkata
Cossipore I.H.E Tenant Welfare Association,22.627164,88.37224,"87B, Kasipur Rd , Cossipore Road, Bara Nagar, CIT, Satchasi Para, Kolkata, West Bengal 700035",CCU-N,Kolkata
Cossipore Shakti Sangha,22.624208,88.37249,"8A Gopi Mondal Lane, Kolkata- 700002",CCU-N,Kolkata
D. N. Ghosh Road Sarbojanin Durgotsav Commitee,22.482359,88.184095,"24, D.N. Ghosh Rd, Maity Para, Samanta Para, Budge Budge, Kolkata, West Bengal 700137",CCU-S,Kolkata
D. N. Mitra Square Sarbojanin,22.535506,88.34661,"2/1C, Dr. Rajendra Road, Kolkata-700020",CCU-S,Kolkata
DA Block,22.5847695,88.4019072,"Bond Forever Jewelry Pvt. Ltd, DA 18, Salt Lake City, Bidhannagar - 700048, WB, India",CCU-E,Kolkata
DB Block,22.5862889,88.4049385,"Sector I, Bidhannagar - 700064, WB, India",CCU-E,Kolkata
Dakshin Kolkata Sarbojanin Durgotsab,22.524378,88.33448,"Alipore, Kolkata, West Bengal 700027",CCU-S,Kolkata
Dakshin Kolkata Tarun Samity Durga Puja,22.515614,88.341925,"23/7/3B, Tollygunge Road, Sahanagar, Kalighat, Kolkata, West Bengal",CCU-S,Kolkata
Dakshin Pally Sarbojonin,22.6978082,88.3861413,"Sodepur, Khardaha - 700110, WB, India",CCU-N,Kolkata
Dakshin Panihati Sarbojonin,22.6881151,88.3774661,"Sodepur, Kamarhati - 700114, WB, India",CCU-N,Kolkata
Dakshin Phalguni Club,22.470131,88.379921,"Kolkata - 700086, WB, India",CCU-S,Kolkata
Dakshineswar Adi Sarbojanin Durgotsab O Dolutsab Samity,22.65922,88.364435,"2b, AC Sarkar Rd, Dakshineswar, Kolkata, West Bengal 700076",CCU-N,Kolkata
Darjeepara Sammilani,22.591429,88.367177,"Beadon Row, Hedua, Kolkata-700006",CCU-N,Kolkata
Darjeepara Sarbojonin Durgotsab Samity,22.592462,88.367956,"Darjipara, Kolkata, West Bengal 700006",CCU-N,Kolkata
Darpanarayan St. Sarbojanin Durga Puja,22.587297,88.35433,"Darpanarayan Tagore St, Malapara, Jorabagan, Kolkata, West Bengal 700007",CCU-N,Kolkata
Das Bari DurgaPuja,22.7040215,88.3723976,"Sodepur, Khardaha - 700114, WB, India",CCU-N,Kolkata
Dashadrone Sarbojanin Durgotsav,22.6313979,88.4464932,"Dashadrone Manicktala, Khelar Math, PO- Rajarhat, Kolkata- 700136, West Bengal",CCU-E,Kolkata
Daw Bari Bandookwala,22.586186,88.359479,"Sri Krishna Daw Ln, Machua Bazar North, Kolkata - 700007, WB, India",CCU-N,Kolkata
De Bari Durga Puja,22.535065,88.342072,"26/E, Chandra Nath Chatterjee St, Bhowanipore, Kolkata, West Bengal 700025",CCU-S,Kolkata
Debloke Residents Welfare Association,22.61885,88.408942,"1/99 Krishnakunj Apartment M M, MM Ghose Rd, Ward Number 22, Amarpalli, South Dum Dum, Kolkata- 700074",CCU-N,Kolkata
Deodar Street Balak Sangha,22.526427,88.360239,15/8 Deodar Street Kolkata 700019,CCU-S,Kolkata
Deshapriya Park Durgotsab,22.518439,88.353527,"Rash Behari Ave, Manoharpukur, Kalighat, Kolkata, West Bengal 700029",CCU-S,Kolkata
Deshbandhunagar Sarbojanin Durgotsab,22.612775,88.423516,"AA-8/4 Deshbandhunagar, Baguiati, Kolkata-700059",CCU-N,Kolkata
Dhakuria Pragati Sangha Durga Puja,22.508624,88.371807,"30C, Dhakuria, Tanu Pukur, Kolkata, West Bengal 700031",CCU-S,Kolkata
Dhakuria Sarbojanin Durgotsab,22.511363,88.378555,"5, Sarat Ghosh Garden Road, Dhakuria, Tanu Pukur, Kolkata, West Bengal",CCU-S,Kolkata
Dhalua Naboday Sangha,22.472903,88.407973,"Dhalua (West), at Shiv Durga Mandir, Near Saha Panchil",CCU-S,Kolkata
Dharmatala Palli Bashi Brinda Club,22.605473,88.341941,"Salkia, 10, Dharmatala Rd, Salkia, Howrah, West Bengal 711106",HWH,Kolkata
Dhiren Charu Smriti Sangha,22.561184,88.405335,"1a/2a Ramkrishna Naskar Lane,CIT More, Beleghata, Kolkata, West Bengal 700010",CCU-E,Kolkata
Diamond City West Welfare Society,22.484178,88.301672,"18, Ho Chi Minh Sarani, Bakultala, Behala, Kolkata, West Bengal 700061",CCU-S,Kolkata
Diamond Park Sabojanin Durgotsav Committee,22.45192,88.304284,"P-62, Diamond Park, Joka, Kolkata, West Bengal 700104",CCU-S,Kolkata
Dilip Smriti Sangha,22.517796,88.34494,"Kalighat, Kolkata - 700026, WB, India",CCU-S,Kolkata
Dipabali Co-Operative Housing Puja Committee,22.48686,88.391007,"1050/2, P G, Survey Park, Santoshpur, Kolkata, West Bengal 700075",CCU-S,Kolkata
Dum Dum Mall Palli,22.628401,88.421617,"Parul Nibas, 38/1, Mall Road, Nagerbazar, South Dumdum - 700080, WB, India",CCU-N,Kolkata
Dum Dum Mall Pally,22.616679,88.402984,"866, Panchanantala, Bahiragath Colony, Jawpur, South Dum Dum, Kolkata, West Bengal 700074",CCU-N,Kolkata
Dum Dum Park Bharat Chakra,22.610102,88.414169,"Tank No. 2, Dum Dum Park, South Dum Dum, Kolkata- 700055",CCU-N,Kolkata
Dum Dum Park Bharat Chakra Sarbojanin Durgotsav,22.610662,88.41433,"Tank No. 2, Dum Dum Park Road, South Dum Dum, Kolkata- 700055, West Bengal",CCU-N,Kolkata
Dum Dum Park Sarbojanin Durga Puja Committee,22.609514,88.4164,"225/1, Dum Dum Park, South Dum Dum, Kolkata, West Bengal 700055",CCU-N,Kolkata
Dum Dum Park Tarun Sangha,22.610095,88.411637,"Tank No 3, Dum Dum Park, South Dum Dum, Kolkata, West Bengal 700055",CCU-N,Kolkata
Dum Dum Park Tarun Sangha Sarbojanin Durgotsav,22.610723,88.413628,"Tank No. 3, Dum Dum Park Road, South Dum Dum, Kolkata- 700055, West Bengal",CCU-N,Kolkata
Dum Dum Park Yubak Brinda,22.605386,88.417875,"A,, 413, Dum Dum Park, South Dum Dum, Kolkata, West Bengal 700055",CCU-N,Kolkata
Dum Dum Tarun Dal,22.611732,88.418739,"Bangur, South Dumdum - 700101, WB, India",CCU-N,Kolkata
Dum Dum Tarun Dal Association,22.610051,88.419617,"60, Shyam Nagar Road, Dum Dum Park, South Dum Dum, Kolkata, West Bengal 700055",CCU-N,Kolkata
Dunduvi Club,22.62697,88.425336,"NA/7, K.B.Sarani, Kamardanga, Kolkata, West Bengal 700080",CCU-N,Kolkata
Durbar Mahila Samanya Committee Durga Puja,22.591756,88.363819,"12/5, Nilmoni Mitra Street, Kolkata, West Bengal 700006",CCU-N,Kolkata
Durga Charan Mitra Thakur Dalan,22.592106,88.365225,"Beadan Row, Shobha Bazar East, Kolkata - 700003, WB, India",CCU-N,Kolkata
Durga Puja of 4 Ghosh Lane,22.585108,88.370789,"Sealdah North, Kolkata - 700006, WB, India",CCU-C,Kolkata
Durgabari,22.499889,88.315765,"Brahmo Samaj Road, Behala, Kolkata - 700034, WB, India",CCU-S,Kolkata
Dutta Bari,22.568145,88.360783,"Hidaram Banerjee Ln, Chandni Chowk East, Kolkata - 700013, WB, India",CCU-N,Kolkata
Dutta Family Hatkhola - Madan Mohan Dutta,22.593849,88.354017,"Madan Mohan Dutta Lane, Ward 20, Kolkata - 711107, WB, India",CCU-N,Kolkata
EC Block Residents Association,22.585853,88.409114,"North Corner of EC Park,, Sector 1, Kolkata, West Bengal",CCU-E,Kolkata
EC Market,22.5852613,88.4092955,"EC Market, Bidhannagar - 700097, WB, India",CCU-E,Kolkata
EE Block,22.5801459,88.4240305,"Sector V, Bidhannagar - 700091, WB, India",CCU-E,Kolkata
Eden City Durga Puja,22.493402,88.210956,"New Budge Budge Trunk Road, Parbangla, Sarengabad, Kolkata-700137",CCU-S,Kolkata
Eden Residency Puja Committee,22.483302,88.411073,"2813, Nayabad Ave, Daspara, Rangapara, Nayabad, Kolkata, West Bengal 700094",CCU-S,Kolkata
Ekdalia Evergreen Club Durga Puja,22.521216,88.366581,"15, Ekdalia Road, Ekdalia, Ballygunge, Kolkata, West Bengal 700019",CCU-S,Kolkata
Ekta Oleander Resident,22.55891,88.379943,"Radhanath Chowdhury Road, Seal Lane, Tangra, Kolkata, West Bengal 700015",CCU-C,Kolkata
Entally Kantal Bagan Durga Puja Committee,22.557502,88.371924,"35/A, Entally, Kolkata, West Bengal 700014",CCU-C,Kolkata
Entally Udayan Sangha,22.557594,88.367002,"16, Haralal Das St, Entally, Kolkata, West Bengal 700014",CCU-C,Kolkata
FC Block,22.5800034,88.409485,"Administrative Training Institute, 1st A Cross Road, Sector III, Bidhannagar - 700097, WB, India",CCU-E,Kolkata
FC Block Sarbojonin Durgotsav Committee,22.580016,88.4095,"FC Block, Sector III, Salt Lake City, Kolkata, West Bengal 700106",CCU-E,Kolkata
FD Block Sarbojanin Puja Committee,22.583649,88.41243,"FD-63/A, FD Block, Sector III, Salt Lake City, Kolkata, West Bengal 700106",CCU-E,Kolkata
FE Block,22.5815762,88.4179705,"158, Bidhannagar - 700135, WB, India",CCU-E,Kolkata
FE Block Residents Association,22.579946,88.414879,"FE Block, Sector III, Salt Lake City, Kolkata, West Bengal 700106",CCU-E,Kolkata
Falguni Sangha Durga Puja,22.522228,88.365877,"Falguni Sangha, Ekdalia, Ballygunge, Kolkata, West Bengal 700019",CCU-S,Kolkata
GC Block,22.5785377,88.4119096,"111, 1st Cross Road, Sector III, Bidhannagar - 700097, WB, India",CCU-E,Kolkata
GD Block,22.5770958,88.4167583,"268, 1st Cross Road, Sector III, Bidhannagar - 700106, WB, India",CCU-E,Kolkata
Ganbani Sangha,22.488768,88.327805,"Paschim Putiary, Kolkata - 700008, WB, India",CCU-S,Kolkata
Gandhi Colony Avijan Club,22.523005,88.343971,"4/208, Gandhi Colony, Netaji Nagar, Kolkata, West Bengal 700040",CCU-S,Kolkata
Gandhinagar Bidhanmilon Somiti Puja Prangon,22.6886535,88.3832769,"Sodepur, Kamarhati - 700109, WB, India",CCU-N,Kolkata
Garfa Kantapukur Sarbojanin Durgapuja,22.499306,88.384615,"67/A Garfa Gouranga Sarani67/A Garfa Gouranga Sarani, Kolkata-700078",CCU-S,Kolkata
Garia Amra Kajan Club,22.463407,88.384064,"Fartabad More, Garia Station Road, Opp. Harimati Devi Girls High School, P.O. Garia, Kolkata-700084",CCU-S,Kolkata
Garia Pancha Durga,22.461643,88.378166,"Garia Mitali Sangha, Brahmapur, Kolkata - 700084, WB, India",CCU-S,Kolkata
Garia Sabuj Dal,22.469654,88.381599,"Kolkata - 700086, WB, India",CCU-S,Kolkata
Garia Sarbojanin Durgotsab Committee,22.465981,88.403179,"Garia Station Rd, Tentulberia, Nabagram, Panchpota, Kolkata, West Bengal 700084",CCU-S,Kolkata
Garia Sreerampur Kalyan Samity,22.466888,88.38044,"Kalyan Sangha, Garia Main Road, Kolkata - 700084, WB, India",CCU-S,Kolkata
Genexx Valley Durga Puja,22.449517,88.303277,"Diamond Harbour Rd, Near ESI Hospital, Diamond Park, Joka, Kolkata, West Bengal 700104",CCU-S,Kolkata
Ghas Bagan,22.591923,88.343468,"Howrah Maidan, Howrah - 711101, WB, India",HWH,Kolkata
Ghola Agradut Club,22.6957052,88.3965437,"Sodepur Road, Sodepur, Panihati - 700111, WB, India",CCU-N,Kolkata
Ghola C Block Adi Sarobojonin,22.6967172,88.4038785,"Panihati - 700111, WB, India",CCU-N,Kolkata
Ghosh Para Kali Tala,22.712405,88.3937218,"Khardaha - 700112, WB, India",CCU-N,Kolkata
Ghoshpara Sankalpa Sangha Durga Puja,22.585493,88.313691,"7 Fakir Chand Ghosh Lane, Howrah-711104",HWH,Kolkata
Ghoshpara Young Stars Durga Puja,22.583522,88.310944,"30/34 Baruipara 1St Bye Lane, Santragachi, Howrah-711104",HWH,Kolkata
Goal Math,22.526427,88.349862,"Bakul Bagan Road, Bhowanipore, Kolkata - 700025, WB, India",CCU-S,Kolkata
Goalmath Durga Puja Samity,22.526886,88.349548,"41/1a, Townshend Rd, Bakul Bagan, Bhowanipore, Kolkata, West Bengal 700025",CCU-S,Kolkata
Godrej Prakriti Durga Puja,22.7082865,88.3793567,"Sodepur, Khardaha - 700115, WB, India",CCU-N,Kolkata
Golaghata Sammilani,22.597297,88.399173,"Golaghata Rd, Sreebhumi, Lake Town, Kolkata, West Bengal 700048",CCU-N,Kolkata
Golden Arrow Club,22.516494,88.347673,"Tara Road, Lake Market, Kalighat, Kolkata, West Bengal 700029",CCU-S,Kolkata
Golf Club Road Durga Puja,22.497555,88.347523,"73/26, Golf Club Rd, Uday Sankar Sarani, Rajendra Prasad Colony, Tollygunge, Kolkata-700033",CCU-S,Kolkata
Golf Green Phase II Durga Puja,22.495023,88.363044,"Lig 1/2, Golf Green, Kolkata, West Bengal 700095",CCU-S,Kolkata
"Golf Green Sarbojanin Durgotsav Committee Phase 3,4,7",22.492158,88.362218,"Phase III,IV & VII,, Golf Green, Kolkata, West Bengal 700095",CCU-S,Kolkata
Golfgreen Phase 1,22.493393,88.362274,"Sarkar, W2A(R) 9, Prince Golam Hossain Shah Road, Bikramgarh, Kolkata - 700095, WB, India",CCU-S,Kolkata
Golfgreen Phase 2,22.492256,88.360809,"Sarkar, W2A(R) 9, Prince Golam Hossain Shah Road, Bikramgarh, Kolkata - 700095, WB, India",CCU-S,Kolkata
Gopal Nagar Kalyan Sangha Durga Puja,22.501932,88.357504,"321, Prince Anwar Shah Rd, Madar Tala Colony, Tollygunge, Kolkata, West Bengal 700095",CCU-S,Kolkata
Gorbhobani Club Durga Puja,22.6975874,88.3659979,"Sodepur, Kamarhati - 700114, WB, India",CCU-N,Kolkata
Gouranga Nagar Adhibasi Brinda,22.7004607,88.4068144,"Panihati - 700111, WB, India",CCU-N,Kolkata
Gouriberia,22.594547,88.379227,"Gouribari Sarbojanin, Ward 12, Kolkata - 700004, WB, India",CCU-N,Kolkata
Green Avenue Sarbojanin,22.494051,88.380264,"Jadavpur, Kolkata - 700075, WB, India",CCU-S,Kolkata
Green Field City Welfare Committee,22.495222,88.273668,"Greenfield City, Behala Mauza, Kolkata, West Bengal 700140",CCU-S,Kolkata
Greenwood Nook,22.50556,88.399902,"Greenwood Nook, Kolkata, Kolkata District, India",CCU-S,Kolkata
Grey Street Sarbojanin Durga Puja,22.594591,88.3708,"38/1, Grey Street, Kolkata-700005",CCU-N,Kolkata
"Gurudas Park , Beleghata",22.570605,88.390307,"Suren Sarkar Rd, Jewish Graveyard, Phool Bagan, Beleghata, Kolkata-700010",CCU-E,Kolkata
HA Block,22.5755587,88.4119096,"Sector III, Bidhannagar - 700097, WB, India",CCU-E,Kolkata
HB Block,22.5741049,88.4155462,"Sector III, Bidhannagar - 700106, WB, India",CCU-E,Kolkata
Halasibagan,22.589843,88.377843,"Nirode Behari Mullick Road, Simla, Kolkata - 700006, WB, India",CCU-N,Kolkata
Halderpara Friends Association,22.570389,88.313816,31/10/1 Halder Para Lane Howrah-711101,HWH,Kolkata
Halsibagan Sarbojanin Durgotsab,22.589411,88.377401,"14, Nirode Behari Mullick Road, Kolkata-700006",CCU-N,Kolkata
Hari Ghosh Street Sarbojanin Durgotsav Samity,22.590565,88.368083,"15 Hari Ghosh Street, Kolkata, West Bengal 700006",CCU-N,Kolkata
Haridevpur 41 Pally,22.48303,88.338509,"41 Pally, Ward 115, Kolkata - 700040, WB, India",CCU-S,Kolkata
Haridevpur Adarsha Samiti,22.475842,88.336937,"Paschim Putiary, Kolkata - 700040, WB, India",CCU-S,Kolkata
Haridevpur Adarsha Samity,22.475988,88.334168,"Ustad Amir Ali Khan Sarani, Haridevpur, Paschim Putiary, Kolkata, West Bengal 700041",CCU-S,Kolkata
Haridevpur Nabin Sathi Club,22.470082,88.339838,"Dakshin Para, Purba Putiary, Kolkata, West Bengal 700093",CCU-S,Kolkata
Haridevpur New Sporting Club,22.480041,88.335754,"55, Banamali Banerjee Rd, Basuri Bagan, Paschim Putiary, Kolkata, West Bengal 700082",CCU-S,Kolkata
Haridevpur Vivekananda Park Athletic Club,22.481016,88.336967,"Paschim Putiary, Kolkata - 700040, WB, India",CCU-S,Kolkata
Haridevpur Vivekananda Sporting Club,22.476351,88.338588,"Mahatma Gandhi Rd, Haridevpur, Paschim Putiary, Kolkata, West Bengal 700082",CCU-S,Kolkata
Harijankalyan Sangh Sarbojanin,22.524235,88.361387,"6, Garcha 1st Ln, Dover Terrace, Ballygunge, Kolkata, West Bengal 700019",CCU-S,Kolkata
Harinath Mookherjees House Durga Puja,22.577299,88.371252,"Keshab Sen Street, Baitakkhana North, Kolkata - 700009, WB, India",CCU-N,Kolkata
Harinavi Mitra Para,22.418503,88.416064,"Harinavi, Rajpur Sonarpur, West Bengal 700148",CCU-S,Kolkata
Harish Park Puja,22.530655,88.343681,"Netaji Eye Hospital, 28, Harish Mukherjee Road, Bhowanipore, Kolkata - 700025, WB, India",CCU-S,Kolkata
Harish Park Sarbojanin Durgotsab Samity,22.539088,88.344352,"81/1, Harish Mukherjee Road, Kolkata-700025",CCU-S,Kolkata
Haritaki Bagan,22.586396,88.372092,"Sealdah North, Kolkata - 700006, WB, India",CCU-N,Kolkata
Haru Chandra Sporting Club Durga Puja,22.474269,88.29009,"Ghoshpara, Kolkata, West Bengal 700063",CCU-S,Kolkata
Hatibagan Nabinpally Sarbojanin Durgotsav,22.595974,88.373508,"11/1d,, Ganendra Mitra Ln, Hati Bagan, Shyam Bazar, Kolkata, West Bengal 700004",CCU-N,Kolkata
Hatibagan Sarbojanin,22.594216,88.371872,"Principal Khudiram Bose Rd, Shyambazar, Sovabazar, Goa Bagan, Kolkata, West Bengal 700004",CCU-N,Kolkata
Hatkhola Gosain Para,22.598639,88.360097,"Kashi Mitra, Kolkata - 700003, WB, India",CCU-N,Kolkata
Hatkhola Gossainpara Sarbojanin Durgotsav,22.599161,88.35914,"Gossain Para Ln, Sovabazar, Kumartuli, Shobhabazar, Kolkata, West Bengal 700005",CCU-N,Kolkata
Hazra Udayan Sangha,22.523378,88.348593,"109/19, Hazra, Kalighat, Kolkata, West Bengal 700026",CCU-S,Kolkata
Hindu Mahasabha - Girish Park,22.586019,88.36212,"Tagore Street, Machua Bazar North, Kolkata - 700007, WB, India",CCU-C,Kolkata
Hindu Mahasabha Sarbojanin Durgotsav,22.5859348,88.360559,"Vivekananda Road, Kolkata- 700006, West Bengal",CCU-C,Kolkata
Hindustan Club,22.520159,88.360721,"37/B, Hindusthan Rd, Dover Terrace, Ballygunge, Kolkata, West Bengal 700019",CCU-S,Kolkata
Hindustan Pally Durga Puja [Tollygunge Place Club],22.499973,88.346706,"Russa Rd South 2nd Ln, Netajinagar, Rajendra Prasad Colony, Tollygunge, Kolkata, West Bengal 700033",CCU-S,Kolkata
Hindustan Park,22.517731,88.362648,"Hindustan Park, Ward 86, Kolkata - 700019, WB, India",CCU-S,Kolkata
Hindusthan Park Purbachal Club,22.517773,88.363944,"Hindusthan Park, Hindustan Park, Gariahat, Kolkata, West Bengal 700029",CCU-S,Kolkata
Hindusthan Park Sarbojanin Durgotsab Committee,22.517696,88.362036,"51, Hindustan Park, Gariahat, Kolkata, West Bengal 700019",CCU-S,Kolkata
Hindusthan Park Tarun Sangha,22.518062,88.361171,"8/1c, Hindustan Park Road, Hindustan Park, Gariahat, Kolkata, West Bengal 700029",CCU-S,Kolkata
Howrah Anusilan Samity,22.576873,88.325253,"64 63, Gopal Banerjee Ln, Naora, Shibpur, Howrah, West Bengal 711102",HWH,Kolkata
Howrah Jatiya Sevadal Club,22.588634,88.328358,"40/2, IR Belilious Ln, Kadam Tala, Howrah, West Bengal 711101",HWH,Kolkata
Howrah Seva Sangha,22.586443,88.320503,"1,, 123/4, Narasingha Dutta Rd, Kadam Tala, Howrah, West Bengal 711101",HWH,Kolkata
Howrah Tarun Samity,22.576145,88.32661,"Dr Gangadhar Mukherjee Rd, Naora, Shibpur, Howrah, West Bengal 711102",HWH,Kolkata
IA Block,22.5725677,88.4106973,"Sector III, Bidhannagar - 700097, WB, India",CCU-E,Kolkata
IB Block,22.572234,88.4146371,"Sector III, Bidhannagar - 700106, WB, India",CCU-E,Kolkata
Ichapur Bayam Samity Durga Puja,22.590818,88.306623,"Ichapur Majher Para, Santragachi, Howrah-711104",HWH,Kolkata
Ichapur Mitali Sangha Durga Puja,22.593512,88.306956,"Ichapur Uttar Paschim Para, Howrah-711104",HWH,Kolkata
Ichapur Sawamiji Sangha,22.592112,88.311569,"Ichapur Canel Side, Purbapara,Howrah, India 711104",HWH,Kolkata
Ingit Sarbojanin Durgotsav,22.636233,88.417956,"Near Dum Dum Girls High School, U.K. Dutta Road, Dum Dum Gorabazar, Kolkata - 700028.",CCU-N,Kolkata
Interact Club of Chowringhee High School Sarbojanin Durga Puja,22.556686,88.353042,"12A, Chowringhee Lane, Kolkata, West Bengal 700016",CCU-C,Kolkata
JC Block,22.5696125,88.4131218,"JC-27A, National Institute of Homoeopathy Staff Quarters, Bidhannagar - 700098, WB, India",CCU-E,Kolkata
Jadavpur Bank Plot Welfare And Development Committee,22.501016,88.380382,"15/2P/4A, Jheel Road, Vivek Nagar, Jadavpur, Kolkata, West Bengal 700075",CCU-S,Kolkata
Jagaddal Balak Sangha Sarbojonin Durgotsab,22.422004,88.405633,"Eastern Metropolitan Bypass, KM Roy Chowdhury Road, Dakshin Jagaddal, Kolkata, West Bengal 700151",CCU-S,Kolkata
Jagaran Club Durga Puja,22.501936,88.372702,"Newland, Jadavpur, Kolkata, West Bengal 700075",CCU-S,Kolkata
Jagarani Sangha,22.481394,88.340746,"40, Panchanantala Rd, New Panchanantala, Paschim Putiary, Kolkata, West Bengal 700041",CCU-S,Kolkata
Jagat Mukherjee Park,22.599577,88.366204,"1, Jatindra Mohan Ave, Shobhabazar, Kolkata, West Bengal 700005",CCU-N,Kolkata
Jagrata Sangha,22.613422,88.406352,"259, Green Park Road, Naskar Bagan, Sarada Pally, Kolkata, West Bengal 700055",CCU-N,Kolkata
"JagriteeJagritee Durga Puja, Bhowanipore",22.530297,88.350885,"Rajshekhar Bose Sarani, Paddapukur, Bhowanipore, Kolkata, West Bengal 700025",CCU-S,Kolkata
Jal Vayu Vihar Puja Committee,22.55899,88.412077,"Jal Vayu Vihar, LB Block, Sector III, Salt Lake City, Kolkata, West Bengal 700098",CCU-E,Kolkata
Janamangal Samity,22.519112,88.341486,"291/1, Kalighat Rd, Anami Sangha, Kalighat, Kolkata, West Bengal 700026",CCU-S,Kolkata
Janmangal Samiti,22.518097,88.341547,"Kalighat Road, Bhowanipore, Kolkata - 700026, WB, India",CCU-S,Kolkata
Jatra Suru Sangha,22.470616,88.377714,"Shreeram Enclave, 5/1, EM Bypass, Panchasayar, Kolkata - 700084, WB, India",CCU-S,Kolkata
Jawpur Bayam Samiti,22.61357,88.401886,"282, Sahid Hemant Basu Sarani, Lal Garh Colony, South Dum Dum, Kolkata-700074",CCU-N,Kolkata
Jawpur Bayam Samity,22.612486,88.40179,"Udyan, South Dumdum - 700048, WB, India",CCU-N,Kolkata
Jayasree Park,22.492156,88.324341,"Mandal Para Rd, Jayashree Park, Manton, Sarada Pally, Kolkata, West Bengal 700034",CCU-S,Kolkata
Jaynarayan Santra Lane Milan Mandir,22.582504,88.331084,"48 Jaynarayan Santra Lane, Howrah, 711101",HWH,Kolkata
Jodhpur Park,22.504702,88.365028,"Jodhpur Park Boys School, Jodhpur Park Road, Jodhpur Park, Kolkata - 700068, WB, India",CCU-S,Kolkata
Jodhpur Park Saradiya Utsab Committee,22.504519,88.36557,"1/D, JodhPur Park, Kolkata, West Bengal 700068",CCU-S,Kolkata
Jogajatri Club,22.501614,88.331284,"Shibaloy, 85, Jyotish Roy Road, Ward 117, Kolkata - 700053, WB, India",CCU-S,Kolkata
Joramandir,22.613289,88.429512,"Baguiati, Bidhannagar - 700059, WB, India",CCU-N,Kolkata
Jorasanko 7er Palli,22.584,88.361336,"Raja Katra, Singhi Bagan, Jorasanko, Kolkata, West Bengal 700007",CCU-C,Kolkata
"Jorasanko Shib Krishna Daw Bari (Home of Shib Krishna Daw of Jorasanko,Kolkata)",22.585757,88.359652,"Sri Krishna Daw Ln, Machua Bazar North, Kolkata - 700007, WB, India",CCU-N,Kolkata
Joygobinda Laha,22.582576,88.370638,"Rama Prasad Roy Ln, City College, Kolkata - 700006, WB, India",CCU-N,Kolkata
Jubamaitry Durga Puja(Kalighat),22.522455,88.343871,"39, Mahim Halder St, Kalighat, Kolkata, West Bengal 700026",CCU-S,Kolkata
Judge Bagan Recreation Unit,22.477416,88.339001,"Mahatma Gandhi Rd, Jiban Mohini Ghosh Park, Paschim Putiary, Kolkata, West Bengal 700041",CCU-S,Kolkata
Kabiraj Bagan,22.593855,88.382725,"Ultadanga, Kolkata - 700067, WB, India",CCU-N,Kolkata
Kabiraj Ganga Prasad Sen Bari,22.601627,88.360778,"Strand Bank Road, Kashi Mitra, Kolkata - 711101, WB, India",CCU-N,Kolkata
Kali Mohan Ghosh Roy Blue Durga,22.51265,88.350022,"Kalighat, Kolkata, West Bengal",CCU-S,Kolkata
Kalighat Milan Sangha,22.524156,88.340782,"No. 32E, Harish Chatterjee St, Kalighat, Kolkata, West Bengal 700026",CCU-S,Kolkata
Kalighat Nepal Bhattacharjee Street Club,22.517578,88.340635,"10/9, Nepal Bhattacharjee St, Anami Sangha, Kalighat, Kolkata, West Bengal 700026",CCU-S,Kolkata
Kalighat Sabuj Sangha Sarbojanin Durgotsab,22.520093,88.345783,"5,Dwarik Ganguly Street, Kalighat ,Kolkata -700026",CCU-S,Kolkata
Kalighat Youth Organisation,22.528983,88.344521,"12,Mahamaya Lane, Kol - 26",CCU-S,Kolkata
Kalimuddin Adhibasi Brindo Sarbojonin Durgautsav,22.561972,88.393767,"Kalimuddin Sarkar Ln, Kulia, Beleghata, Kolkata-700010",CCU-C,Kolkata
Kalindi Plot Owners Association,22.611172,88.399967,"Kalindi Housing Estate, South Dum Dum, West Bengal 700089",CCU-N,Kolkata
Kalitala Sporting Club,22.506564,88.397225,"126, North Purbachal Kalitala Rd,Purbachal Rd, Kalikapur, Haltu, Kolkata, West Bengal 700078",CCU-S,Kolkata
Kalitala Village Defence Party Kamarhati,22.6814026,88.3680052,"Mallick Bari, 5, Thakur Das Chatterjee Road, Kolkata - 700058, WB, India",CCU-N,Kolkata
Kalyan Nagar Sarbojonin,22.718834,88.3914699,"Maa Durga Aabasan, 128, R N Avenue, Sodepur, Barrackpore - 700112, WB, India",CCU-N,Kolkata
Kalyan Pally Sarbojanin Durgotsab Committee,22.563819,88.313908,"11/20, Balai Mistry Ln, Bataitala, Kazipada, Shalimar, Howrah, West Bengal 711103",HWH,Kolkata
Kamal Park Sarbojanin Durgotsav,22.6036127,88.4262103,"BC- 88, Gauranganagar, Kestopur, Kolkata- 700101, West Bengal",CCU-E,Kolkata
Kamal Residency Puja Committee,22.447633,88.398922,"Kamalgazi, Narendrapur, Kolkata, West Bengal 700103",CCU-S,Kolkata
Kamardanga Sisu Sangha Durga Puja,22.595466,88.304097,"Kamardanda,Santragachi,Howrah-711104",HWH,Kolkata
Kamardanga Sitalatala - Howrah,22.596292,88.302353,"Howrah - 711112, WB, India",HWH,Kolkata
Kamardanga Sitalatala Barowari Durga Puja,22.595933,88.30361,"Kamardanga Road, Kamardanga, Ichapur, Howrah, West Bengal 711104",HWH,Kolkata
Kanjial Para Puja Samity (Rajarhat),22.634774,88.485821,"Purba Kanjial Para, Rajarhat, Kolkata-700135",CCU-E,Kolkata
Kankurgachi Jubak Brinda (Kankurgachi Sarbojanin Durgotsab),22.579535,88.387885,"Kankurgachi, Kolkata-700054",CCU-C,Kolkata
Kankurgachi Progressive Youth,22.582215,88.391876,"1, Bagmari Lane, Maniktala, Kolkata - 700054, WB, India",CCU-E,Kolkata
Kansaripara Sarbojanin Sarodotsab Committee,22.535769,88.342433,"38A, Kansaripara Road, Bhowanipore, Kolkata-700025",CCU-S,Kolkata
Karbagan Sarbojanin Durgotsab Committee,22.59538,88.383811,"17, Ultadanga Main Rd, Daspara, Ultadanga, Kolkata, West Bengal 700067",CCU-N,Kolkata
Karunamayee G Block,22.583117,88.423172,"Sector II, Bidhannagar - 700091, WB, India",CCU-E,Kolkata
Kasba R.K. Chatterjee Road Adhibasi Brinda,22.517994,88.378348,"No.93/4, Rajkrishna Chatterjee Rd, Bosepukur, Kasba, Kolkata, West Bengal 700042",CCU-S,Kolkata
Kasba Renaissance Club,22.519175,88.378205,"64, R.K. Chaterjee Road, Bosepukur, Kasba, Kolkata, West Bengal 700042",CCU-S,Kolkata
Kasba Shakti Sangha,22.51655,88.381742,"14/1 Jahura Bazar Lane, Kolkata-700042",CCU-S,Kolkata
Kasba Uttarpara Arabinda Sporting Club,22.520639,88.373708,"57, KN Sen Ln, New Ballygunge, Kasba, Kolkata, West Bengal 700042",CCU-S,Kolkata
Kashi Bose Lane Durga Puja Committee,22.591148,88.368863,"6E, Manicktala, Darjipara, Kolkata, West Bengal 700006",CCU-N,Kolkata
Kazibagan Lane Social Welfare Association,22.576241,88.306021,"78/5/23, Thakur Ramkrishna Ln, Chatterjihat, Shibpur, Howrah, West Bengal 711104",HWH,Kolkata
Kendua Shanti Sangha,22.472073,88.381544,"ShantiSangha Playground, Ward 101, Kolkata - 700084, WB, India",CCU-S,Kolkata
Kendua Shanti Sangha - Patuli,22.47193,88.380997,"Baghajatin, Kolkata - 700086, WB, India",CCU-S,Kolkata
Kendua Shanti Sangha Sarbojanin Durgotsab Committee,22.471786,88.380237,"45/2 Kendua Main Road , Garia , Kolkata 700084",CCU-S,Kolkata
Kestopur Prafullakanan Adhibasibrinda,22.60821,88.420992,"Baguiati, Bidhannagar - 700101, WB, India",CCU-N,Kolkata
Ketopole Sammilani,22.486515,88.280938,"169, Ho Chi Minh Sarani, Sarsuna Satellite Twp Housing Estate, Behala, Kolkata, West Bengal 700061",CCU-S,Kolkata
Keyatala Pally Samity,22.514798,88.362216,"CIT Scheme 47, Hindustan Park, Kalighat, Kolkata, West Bengal 700029",CCU-S,Kolkata
Khelat Bhavan,22.588769,88.356539,"Pathuria Ghat Street, Ward 24, Kolkata - 700069, WB, India",CCU-N,Kolkata
Kheyali Sangha Durga Puja,22.456002,88.3668,"A-18, South, Bramhapur, Kolkata, 700096",CCU-S,Kolkata
Khidderpore Nabarag,22.541824,88.321245,"30A, Watganj, Kolkata, West Bengal 700023",CCU-S,Kolkata
Khidderpore Sarbojanin Durgotsab,22.53896,88.324929,"Mansatala Ln, Khidirpur, Kolkata, West Bengal 700023",CCU-S,Kolkata
Khidderpur 75 Pally Sarbojanin Durgotsab Committee,22.540289,88.320524,"11C, Khidderpore, Ramanath Pal Road, Watganj, Kolkata, West Bengal 700023",CCU-S,Kolkata
Kidderpore 25 Pally,22.539078,88.326538,"Watganj, Kolkata - 700023, WB, India",CCU-S,Kolkata
Kidderpore 75 Pally,22.540058,88.325711,"Hari Sabha Road, Ward 77, Kolkata - 700022, WB, India",CCU-S,Kolkata
Kidderpore Jubaghosthi Durga Puja,22.544072,88.319929,"30, Joy Krishna Paul Road, Andaman Dock, Khidirpur, Andaman Dock, Khidirpur, Kolkata-700023",CCU-S,Kolkata
Kidderpore Kabitirtha,22.541059,88.321495,"Kabitirtha Saradotsab, Ram Kamal Street, Watganj, Kolkata - 700023, WB, India",CCU-S,Kolkata
Kidderpore Milan Sangha,22.541414,88.323145,"Watganj, Kolkata, West Bengal 700023",CCU-S,Kolkata
Kidderpore Pally Saradia,22.543076,88.32135,"16, Hem Chandra St, Andaman Dock, Watganj, Kolkata, West Bengal 700023",CCU-S,Kolkata
Kidderpore Sarbojanin Durgotsab,22.538145,88.3251,"Kidderpore Sarbojanin, Manastala Lane, Watganj, Kolkata - 700023, WB, India",CCU-S,Kolkata
Kidderpore Udayan,22.545121,88.321484,"Hemchandra Street, Watganj, Kolkata - 700023, WB, India",CCU-S,Kolkata
Kidzee Tulips And Tulipians Preschool Durga Puja,22.522394,88.362305,"16/2G, Dover Lane Kolkata-700029",CCU-S,Kolkata
Kolahal Gosthi Durga Puja Committe,22.522529,88.330937,"700027, 68/1A, Alipore Rd, Alipore, Kolkata, West Bengal 700027",CCU-S,Kolkata
Kolkata,22.56472,88.350845,"Jawaharlal Nehru Road, Esplanade, Kolkata - 700001, WB, India",CCU-C,Kolkata
Krishnabagan Nabajiban Sangha,22.586118,88.37397,"Simla, Kolkata - 700006, WB, India",CCU-N,Kolkata
Kumartuli Park,22.598995,88.361366,"Kumartuli Park, Abhay Mitra Street, Kashi Mitra, Kolkata - 700003, WB, India",CCU-N,Kolkata
Kumartuli Preparation,22.599609,88.362396,"Bana Mali Sarkar Street, Kashi Mitra, Kolkata - 700003, WB, India",CCU-N,Kolkata
Kumartuli Sarbojanin,22.600859,88.363274,"Gopeswar St, Bag Bazar, Kolkata - 700003, WB, India",CCU-N,Kolkata
Kumartuli Sarbojanin Durgoutsav,22.601202,88.362652,"No. 2, Durga Charan Banerjee Street, Kumartuli, Shobhabazar, Kolkata, West Bengal 700005",CCU-N,Kolkata
Kumartully Park Sarbojanin Durgotsab Committee,22.599038,88.361422,"8B, Abhay Mitra St, Sovabazar, Kumartuli, Shobhabazar, Kolkata, West Bengal 700005",CCU-N,Kolkata
Kundu Bari,22.585701,88.362053,"Machua Bazar North, Kolkata - 700007, WB, India",CCU-N,Kolkata
Laha Bari,22.58263,88.362273,"Ramanath Sadhu Ln, Machua Bazar North, Kolkata - 700007, WB, India",CCU-N,Kolkata
Lake Garden Peoples Association,22.506461,88.35646,"Lake Gardens Peoples Association, Ward 93, Kolkata - 700045, WB, India",CCU-S,Kolkata
Lake Gardens Mitali Sangha,22.50459,88.356847,"170/23 Lake Gardens, Trail Path, Lake Gardens, Kolkata, West Bengal 700045",CCU-S,Kolkata
Lake Gardens Peoples Association,22.505648,88.356154,"B-202, Mollahati Path, Lake Gardens, Kolkata, West Bengal 700045",CCU-S,Kolkata
Lake Pally Club,22.515114,88.348072,"Lake Market, Kalighat, Kolkata, West Bengal 700029",CCU-S,Kolkata
Lake Pally Sarbojanin,22.507259,88.346237,"Charu Chandra Place East, Charu Market Area, Kolkata - 700033, WB, India",CCU-S,Kolkata
Lake Town Adhibasi Brinda Durga Puja,22.605004,88.403603,"Lake Town Rd, Block A, Lake Town, South Dum Dum, West Bengal 700089",CCU-N,Kolkata
Lake Town Adhibasi Brindo Sarbojanin Durgotsav,22.6044508,88.4039701,"Children's Park, Lake Town Road, Block- A, Lake Town, South Dumdum, Kolkata- 700089, West Bengal",CCU-N,Kolkata
Lake View Park Sarbojanin Durgotsav Samity,22.644854,88.384427,"D/9, Lake View Park,Bonhooghly, Kolkata-700108",CCU-N,Kolkata
Lake Youth Corner Durga Puja,22.510763,88.347226,"16, Dr TN Majumder St, Lake Range, Kalighat, Kolkata, West Bengal 700045",CCU-S,Kolkata
Laketown Natun Pally Pradeep Sangha,22.60372,88.397507,"Pagaria Computers, 756, Lake Town Road, Lake Town, South Dumdum - 700089, WB, India",CCU-N,Kolkata
Laketown Vivekananda Park,22.610109,88.402476,"Lake Town, South Dumdum - 700089, WB, India",CCU-N,Kolkata
Lalabagan Nabankur Sangha,22.58818,88.377451,"44, Simla Rd, Manicktala, Sahitya Parishad, Kolkata, West Bengal 700006",CCU-N,Kolkata
Laskarpur Jagriti Sangha,22.452458,88.385628,"Ramkrishna Nagar Rd, Ramkrishna Nagar, Garia Gardens, Rabindra Nagar, Kolkata, West Bengal 700153",CCU-S,Kolkata
Madan Mohan Dutta Bari,22.594507,88.354233,"Dutta Para Lane, Jorasanko North, Kolkata - 711101, WB, India",CCU-N,Kolkata
Madhya Kolkata Uttoran,22.568376,88.361576,"21, Surendra Lal Pyne Lane, Kolkata, West Bengal 700012",CCU-C,Kolkata
Madhya Panihati Durga Puja Mandap,22.696616,88.3716,"Sodepur, Kamarhati - 700114, WB, India",CCU-N,Kolkata
Madox Square,22.526557,88.35481,"Earle St And, Pankaj Mullick Sarani, Garcha, Ballygunge, Kolkata, West Bengal 700025",CCU-S,Kolkata
Mahajati Club,22.6844087,88.3787897,"Kamarhati - 700109, WB, India",CCU-N,Kolkata
Mahamayapur Sarbojanin Durgotsab Committee,22.45938,88.386486,"Mahamayapur School Road, Garia, Kolkata - 700084",CCU-S,Kolkata
Mahamayatala Sarbojanin Durgotsab,22.453918,88.387909,"228 Bus Stand, Garia Main Road, Mahamaya Tala, Garia, Kolkata-700084",CCU-S,Kolkata
Mahapuja Samity,22.529025,88.349732,"Ramesh Mitra Rd, Paddapukur, Bhowanipore, Kolkata, West Bengal 700025",CCU-S,Kolkata
Mahendra Srimanis House,22.582104,88.37298,"Mahendra Sreemani Street, City College, Kolkata - 700006, WB, India",CCU-N,Kolkata
Mahendranagar Unnayan Samity,22.7128521,88.400403,"Panihati - 700112, WB, India",CCU-N,Kolkata
Mahishgote Sarbojanin Durgotsav,22.5827143,88.44269,"Krishnapur, Kestopur, Kolkata- 700059, West Bengal",CCU-E,Kolkata
Maitry Sangha Durga Puja Committee,22.59283,88.364561,"22, Jatindra Mohan Ave, Girish Park, Darjipara, Kolkata, West Bengal 700006",CCU-N,Kolkata
Manasbag Sarbojanin Durgotsab,22.666213,88.378193,"Nilgunj Rd, Manasbag, Belghoria, Kolkata, West Bengal 700056",CCU-N,Kolkata
Manasbag Sarbojonin Durgotsav,22.6663891,88.3783907,"Baranagar - 700056, WB, India",CCU-N,Kolkata
Mangalam Park Resisdents Association,22.485416,88.307949,"14, Ho Chi Minh Sarani, Sanjib Pally, Behala, Kolkata, West Bengal 700034",CCU-S,Kolkata
Manicktala Chaltabagan Lohapatty,22.585128,88.372193,"Raja Ram Mohan Sarani, Maniktala, Maniktala, Kolkata, West Bengal 700009",CCU-C,Kolkata
Manoharpukur Youngs,22.518682,88.356214,"Mahanirban Math, Rash Behari Avenue, Manoharpukur, Kolkata - 700029, WB, India",CCU-S,Kolkata
Master Da Smriti Sangha Sarbojanin Durgotsav,22.6048138,88.4235729,"Prafulla Kanan (West), Kestopur, Kolkata- 700101, West Bengal",CCU-N,Kolkata
Mayurbhanj Durgotsab Samity,22.531475,88.326238,"57/2,D.H. Road, Kolkata-700023 (Near Calcutta Medical Research Institute)",CCU-S,Kolkata
Md. Ali Park Durga Puja (Youth Association),22.577273,88.360571,"41/A, 4th Floor, Tara Chand Dutta Street, Kolkata, West Bengal 700073",CCU-C,Kolkata
Merlin MaximusÂ Durga Puja,22.7047679,88.3753351,"The Sayans Blog, Peerless Nagar, Barrackpore Trunk Road, Sodepur, Kolkata - 700114, WB, India",CCU-N,Kolkata
Milan Sangha Club,22.564491,88.384011,"Subhash Park, 167/ 40 A, Beliaghata Main Road, Chaulpatty Rd, Kulia, Tangra, Kolkata-700010",CCU-C,Kolkata
Milangarh Sarbojanin,22.651651,88.374054,"Baranagar - 700108, WB, India",CCU-N,Kolkata
Missionpara Sarbojanin Durga Puja Committee,22.726293,88.37978,"Missionpara Road, Chowdhary Para, Rahara, Kolkata, West Bengal 700118",CCU-N,Kolkata
Mitali Kankurkachi Durgapuja,22.579986,88.394219,"179A/1A, Maniktala Main Rd, Kadapara, Sector 1, Kankurgachi, Kolkata, West Bengal 700054",CCU-E,Kolkata
Mitra Sanghati,22.570085,88.392297,"8,Suren Sarkar Road,Kolkata-700010",CCU-E,Kolkata
Mohan Bagan Barowari,22.598332,88.373657,"21 Mohan Bagan Row, Fariapukur, Shyambazar, Kolkata - 700004",CCU-N,Kolkata
Mohila Mahal Club Durga Puja,22.529917,88.344794,"3/1, Keder Bose Lane, Kolkata-700025",CCU-S,Kolkata
Mohit Moitra Mancha,22.612299,88.382918,"34/1, 13/1/2, Raja Manindra Rd, Jora Mandir, Gangulipara, Paikpara, Kolkata, West Bengal 700059",CCU-N,Kolkata
Mominpore Sarbojanin,22.528451,88.322724,1 Meher Ali Mondal Street Kolkata-700027,CCU-S,Kolkata
Monmohan Park Sarbojanin Durgotsab (Friends Corner),22.48871,88.318783,"Manmohan Park, Raja Rammohan Roy Rd, Muradpur, Barisha, Kolkata, West Bengal 700008",CCU-S,Kolkata
Monohar Pukur Sarbojonin Durgotsob Committee,22.519528,88.350601,"22,Bipin Pal Road, Kolkata-26",CCU-S,Kolkata
Motijheel Sarbojanin,22.62336,88.410759,"Motijheel College Playground, Dum Dum - 700048, WB, India",CCU-N,Kolkata
Motijheel Sarbojanin Durgotsab Committee,22.624726,88.40792,"291, Motijheel, Lakshminagar, South Dum Dum, Kolkata-700074",CCU-N,Kolkata
Motilal Durga Bari,22.56776,88.361742,"Bowbazar, Kolkata - 700013, WB, India",CCU-N,Kolkata
Motilal Seal Bari,22.57594,88.358192,"Md Jan Higher Secondary School, 9B, Bolai Dutta Street, Ward 43, Kolkata - 700073, WB, India",CCU-N,Kolkata
Mudiali Club Sarbojanin Durga Puja,22.510006,88.346778,"37, SR Das Rd, Mudiali, Kalighat, Kolkata, West Bengal 700026",CCU-S,Kolkata
Mukherjee Para Durga PujaÂ ,22.6981712,88.3708601,"Sodepur, Kamarhati - 700114, WB, India",CCU-N,Kolkata
Mukul Sangha Club,22.503599,88.314264,"28, Gabtala Lane, Behala, Kolkata, West Bengal 700060",CCU-S,Kolkata
Mullick Bari Pujo (Ranjit & Koel Mullick),22.533559,88.349158,"25A,C, Mohini Mohan Rd, Jadubabur Bazar, Bhowanipore, Kolkata, West Bengal 700020",CCU-S,Kolkata
Munshir Bagan Sarbojanin Durgotsab Committee,22.630449,88.383947,"Kalicharan Ghosh Rd, Sinthi, Kolkata, West Bengal 700050",CCU-N,Kolkata
N.S.C. Sports Club Durga Puja,22.484672,88.359035,"2/65, Gandhi Colony, Kolkata-700092",CCU-S,Kolkata
Naba Baghbazar,22.605097,88.370171,"Nandalal Bose Ln, Chitpur North, Kolkata - 700004, WB, India",CCU-N,Kolkata
Naba Tarun Sangha,22.616124,88.428876,"D.D.13, D.B Nagar, Rail Pukur Rd, Desh Bandhu Nagar, Baguiati, Kolkata, West Bengal 700059",CCU-N,Kolkata
Nabadiaganta,22.614863,88.402755,"Lake Town, South Dumdum - 700005, WB, India",CCU-N,Kolkata
Nabajagaran Club,22.7042497,88.373023,"Sodepur, Khardaha - 700114, WB, India",CCU-N,Kolkata
Nabanagar Badamtala Sarbojanin Durgotsab,22.578775,88.245807,"Howrah,, Andul Mauri, Duillya, Howrah, West Bengal 711302",HWH,Kolkata
Nabanagar Sarbojanin Durgotsav,22.579701,88.245946,"Duillya Nabanagar Badamatala, Howrah, India 711302",HWH,Kolkata
Nabapalli Sangha Sarbojanin Durgotsab,22.507289,88.343985,"45B, Charu Chandra Ave, Sahanagar, Tollygunge, Kolkata, West Bengal 700033",CCU-S,Kolkata
Nabapally Adhibashi Brinda Durga Puja [Nabapally Sporting Club],22.647589,88.428628,"Airport Gate No 2, Manickpur Nabapally, Kolkata-700079",CCU-N,Kolkata
Nabarun Club Panihati,22.7026181,88.3714267,"Sodepur, Khardaha - 700114, WB, India",CCU-N,Kolkata
Nabarun Pally Unnayan Samiti Club,22.7025011,88.391173,"Sodepur, Khardaha - 700110, WB, India",CCU-N,Kolkata
Nabarun Samity,22.514586,88.269978,"Santoshpur Govt Colony, Sanpa, Santoshpur, Maheshtala, West Bengal 700140",CCU-S,Kolkata
Nabarun Sangha Durga Puja,22.50015,88.323522,"88/7, Roy Bahadur Rd, Barik Para, Gholeshapur, Behala, Kolkata, West Bengal 700034",CCU-S,Kolkata
Nabin Sangha (Rajpur),22.435028,88.427353,"Milan Pally, Kolkata, West Bengal 700150",CCU-S,Kolkata
Nainan Para & Jogendra Basak Road Sarbojanin Shree Shree Durgapuja,22.635896,88.375107,"98, Nainan Para Ln, Nainan Para, Baranagar, Kolkata-700036",CCU-N,Kolkata
Naktala Pally Mangal Samity,22.476804,88.367324,"Naktala, Garia, Kolkata, West Bengal 700047",CCU-S,Kolkata
Naktala Pally Unnayan Samity,22.474806,88.364303,"Naktala Pally Unnayan Samity, 1, Khanpur Rd, Naktala, Kolkata, West Bengal 700047",CCU-S,Kolkata
Naktala Sammilani,22.478918,88.367753,"Keya Bagan, Ganguly Bagan, Kolkata, West Bengal 700047",CCU-S,Kolkata
Naktala Sarbojanin Durga Puja Committee,22.472407,88.366172,"Naktala Rd, Poriya, Naktala, Garia, Kolkata, West Bengal 700047",CCU-S,Kolkata
Naktala Udayan Sangha,22.474385,88.36659,"Naktala, Garia, Kolkata, West Bengal 700047",CCU-S,Kolkata
Nalin Sarkar Street Sarbojanin Durgotsab,22.59442,88.374612,"205-A, Shri Aurobindo Sarani Rd, Hati Bagan, Shyam Bazar, Kolkata, West Bengal 700006",CCU-N,Kolkata
Nanda Ram Sen Street Sarbojanin Durgotsab Samity,22.598196,88.361601,"Nandaram Sen St, Hatkhola, Kolkata- 700005",CCU-N,Kolkata
Nandana Yuva Sangha,22.501711,88.32623,"47 Nandana Park,, Nandana Park, Behala, Kolkata, West Bengal 700038",CCU-S,Kolkata
Nandibagan Sarbojonin Durgoutsab,22.508281,88.38523,"Nandibagan, P. O. - Haltu, P. S. - Garfa, Kolkata - 700078.",CCU-S,Kolkata
Narendrapur Greenpark Sarbojanin Durgotsab,22.444532,88.397333,"158, Green Park, Narendrapur, Kolkata, West Bengal 700103",CCU-S,Kolkata
Narikeldanga Sastitala Durga Puja Committeee,22.575954,88.381052,"13, Sastitala Rd, Narkeldanga, Kolkata, West Bengal 700011",CCU-C,Kolkata
Naskarpara Pally Unnayan Samity - Haridevpur,22.480223,88.339539,"Gouria Moth, 27/1a, Mahendra Seth Lane, Ashok Nagar, Kolkata - 700040, WB, India",CCU-S,Kolkata
Naskarpur Sarbojanin,22.506571,88.312065,"Behala, Kolkata - 700060, WB, India",CCU-S,Kolkata
Natagarh Charak Talla & DurgaPuja Puja Mondap,22.7047374,88.4001683,"Panihati - 700111, WB, India",CCU-N,Kolkata
Natunpally Pradeep Sangha,22.603083,88.396975,"26, Shree Bhumi, Patipukur, Kolkata, West Bengal 700048",CCU-N,Kolkata
Nawpara Dada Bhai Sangha,22.6416696,88.3886567,"Baranagar - 700090, WB, India",CCU-N,Kolkata
Neelachal Abasan,22.518125,88.388035,"700107, 98, Prantik Pally Rd, Nabapally, Rajdanga, East Kolkata Twp, Kolkata, West Bengal 700042",CCU-S,Kolkata
Netaji Colony Lowland Durgotsov Committee,22.6349679,88.3832241,"16, A K Mukherjee Road, Baranagar - 700090, WB, India",CCU-N,Kolkata
Netaji Jatiya Sebadal,22.484991,88.358231,"Gandhi Colony High School, Minapara Road, Aswini Nagar, Kolkata - 700092, WB, India",CCU-S,Kolkata
Netaji Jatiya Sebadal Club,22.484724,88.357156,"130, Mirpara Marg, Ashwani Nagar, Regent Park, Kolkata, West Bengal 700040",CCU-S,Kolkata
Netaji Kishore Sangha,22.609621,88.429462,"Baguihati Main Rd, Narayantola East, Ashwini Nagar, Baguiati, Kolkata-700159",CCU-E,Kolkata
Netaji Nagar Sarbojanin,22.480721,88.357719,"Aswini Nagar, Kolkata - 700092, WB, India",CCU-S,Kolkata
Netaji Sporting Club Lake Town Durga Puja,22.607947,88.399977,"Block A, Lake Town, Kolkata, West Bengal 700089",CCU-N,Kolkata
New Agragami Sangha,22.503202,88.340384,"2/B Chetla Road, New Alipore Kolkata-700053",CCU-S,Kolkata
New Alipore Sarbojanin Durgotsav Samity,22.507111,88.337023,"Dattu Phadkar Childrens Park, New Alipore, Kolkata, West Bengal 700053",CCU-S,Kolkata
New Alipur Hindustan Club,22.504006,88.337118,"Ajoy Nagar, Buroshibtalla, Behala, Kolkata, West Bengal 700053",CCU-S,Kolkata
New Market Sabojanin Sri Sri Durga Puja,22.56047,88.354968,"38 Market Street And, Mirza Ghalib St, Dharmatala, Crossing, Kolkata, West Bengal 700087",CCU-C,Kolkata
New Subhash Sporting Club,22.6902205,88.377564,"Sodepur, Kamarhati - 700114, WB, India",CCU-N,Kolkata
New Surya Sangha Rajchandrapur,22.654429,88.322278,"Rajchandrapur, Bally, Howrah, West Bengal 711205",HWH,Kolkata
Nilmani Deys Thakurbari,22.566697,88.362492,"Hidaram Banerjee Ln, Chandni Chowk East, Kolkata - 700013, WB, India",CCU-N,Kolkata
Nilmani Sen Bari Durga Puja,22.573346,88.368567,"Baitakkhana North, Kolkata - 700009, WB, India",CCU-N,Kolkata
Nimta Boys Athletic Club Sarbojanin Durgotsav Committee,22.663895,88.39777,"Udaypur, Nimta, Kolkata, West Bengal 700058",CCU-N,Kolkata
Nimtala Sarbojanin Durgotsab,22.591846,88.358801,"Rabindra Sarani, #58, Nimtala Ghat St, Kolkata, West Bengal 700006",CCU-N,Kolkata
North End Plaza Durgotsab,22.641058,88.374251,"234, Gopal Lal Tagore Road, Kolkata- 700036",CCU-N,Kolkata
North Narikeldanga Bhatri Sangha & Welfare Society,22.579247,88.383158,"15/1 Narikeldanga North Road, Kolkata- 700011",CCU-C,Kolkata
Nutan Pally Sarbojanin Durgotsab (Natunpally Adhibasi Brinda),22.676527,88.389483,"N Basudev Rd, Natun Pally, Belghoria, Kolkata, West Bengal 700056",CCU-N,Kolkata
Nutan Probhati Sangha,22.517857,88.348088,"Prince Golam Md Rd, Manoharpukur, Kalighat, Kolkata, West Bengal 700029",CCU-S,Kolkata
Olabibitala Sarbojanin Durgotsav,22.575337,88.31508,"4, Olabibitala Ln, Naora, Shibpur, Howrah, West Bengal 711104",HWH,Kolkata
Padmapukur Baroyari,22.531862,88.354294,"Jyotirmoyee Apartment, 27/2, Chakraberia Lane, Hazra, Kolkata - 700020, WB, India",CCU-S,Kolkata
Padmapukur Youth Association,22.531614,88.352341,"Padmapukur Park, Lansdowne Road (Sarat Bose Road), Ward 72, Kolkata - 700019, WB, India",CCU-S,Kolkata
Paik Para 15 Palli Adhibasibrinda,22.618205,88.390318,"15,Paikpara.Kolkata, West Bengal 700037",CCU-N,Kolkata
Paikpara Sarbojanin Durgotsab Committee,22.613722,88.384424,"Ganguly Para Ln, Ganguly Para Lane, Gangulipara, Paikpara, Kolkata, West Bengal 700037",CCU-N,Kolkata
Palli Asar Sporting Club,22.508493,88.324986,"11, Joykrishna Paul Rd, Sahapur, New Alipore, Kolkata, West Bengal 700038",CCU-S,Kolkata
Palli Unnayan Samity (Basudevpur),22.478279,88.342126,"400/3, Banerjee Para Rd, Kudghat, Banerjee Para, Paschim Putiary, Kolkata, West Bengal 700041",CCU-S,Kolkata
Pallir Yubak Brinda,22.576123,88.367023,"Sitaram Ghosh Street, Kolkata, West Bengal 700009",CCU-C,Kolkata
Pallisree Sarbajanin Durgotsav Committee,22.483358,88.361413,"1, Pallisree, Regent Estate, Kolkata 700092",CCU-S,Kolkata
Pally Mangal Samity,22.503017,88.36396,"Jodhpur Park, Kolkata - 700068, WB, India",CCU-S,Kolkata
Pally Mangal Samity (Prince Anwar Shah Road),22.502278,88.364611,"393-B, Prince Anwar Shah Road, Katju Nagar, Jadavpur, Kolkata, West Bengal 700068",CCU-S,Kolkata
Panchanan Tala Sarbojonin Durgotsab Committee,22.503594,88.316721,"Panchanan Tala, Behala, Kolkata, West Bengal 700034",CCU-S,Kolkata
Panchanna Gram Durgotsab Committee,22.528198,88.394793,"Eastern Metropolitan Bypass, Bidhan Nagar, Tiljala, Kolkata, West Bengal 700039",CCU-S,Kolkata
Panchantala Durgotsav,22.7079961,88.3909083,"Sodepur, Khardaha - 700112, WB, India",CCU-N,Kolkata
Panditia Puja Samity,22.52202,88.358753,35A Panditiya Road Kolkata 700029,CCU-S,Kolkata
Panihati Ankur Club Durga Puja,22.6994778,88.370485,"Ankurclub Playground, Sodepur, Kamarhati - 700114, WB, India",CCU-N,Kolkata
Panihati Club (Panihati Sadharan),22.6954057,88.368823,"Sodepur, Kamarhati - 700114, WB, India",CCU-N,Kolkata
Panihati Vivekananda Social Welfare Organisation,22.6959189,88.3747884,"Barrackpore Trunk Road, Sodepur, Kamarhati - 700116, WB, India",CCU-N,Kolkata
Panshila Anandapally Janakalyan Samity,22.7141429,88.3899158,"26, R N Avenue, Khardaha - 700117, WB, India",CCU-N,Kolkata
Pansila Sarbojonin,22.7126148,88.3842798,"26, R N Avenue, Khardaha - 700117, WB, India",CCU-N,Kolkata
Pansila Thakurbari,22.7159418,88.3893814,"Khardaha - 700112, WB, India",CCU-N,Kolkata
Park Circus - Uddipani,22.544149,88.370056,"Park Circus, Ward 64, Kolkata - 700017, WB, India",CCU-C,Kolkata
Parvati Charan Laha,22.580886,88.365851,"Aurobindo Netralaya, Ward 39, Kolkata - 700007, WB, India",CCU-N,Kolkata
Paschim Putiary Sarbojanin Nabo Durgotsav (Unnayani Sangha),22.483015,88.343703,"1/2, Taramoni Ghat Rd, Colony No.1, Paschim Putiary, Kolkata, West Bengal 700041",CCU-S,Kolkata
Pathuriaghata Pancher Pally,22.588566,88.358368,"Rabindra Sarani, Ward 26, Kolkata -, WB, India",CCU-N,Kolkata
Patuatola Banerjee Road,22.574523,88.365932,"H Majumdar St, Bow Bazar North, Kolkata - 700073, WB, India",CCU-N,Kolkata
Patuli Sarbojanin Durgotsab (Patuli Central Club),22.47454,88.384236,"Patuli Central Club, Patuli Main Rd, Baishnabghata Patuli Twp, Patuli, Kolkata, West Bengal 700094",CCU-S,Kolkata
Peerless Nagar Durga Puja,22.701004,88.3734802,"The Sayans Blog, Peerless Nagar, Barrackpore Trunk Road, Sodepur, Kolkata - 700114, WB, India",CCU-N,Kolkata
Picnic Sebayet Samity,22.528567,88.377627,"219, Picnic Garden Road, Kata Pukur, Kasba, Kolkata, West Bengal",CCU-S,Kolkata
Pirtala Sports & Cultural Centre,22.6833084,88.3893318,"Kamarhati - 700109, WB, India",CCU-N,Kolkata
Poddar Nagar Sarbojanin Durgoutsav Committee,22.500899,88.364434,"5/1, Katju Nagar, Jadavpur, Kolkata, West Bengal 700032",CCU-S,Kolkata
Prafullakanan Adhibasibrinda (Poschim),22.607486,88.421479,"Prafulla Kanan Rd, Prafulla Kanan, Kestopur, Rajarhat, West Bengal 700101",CCU-N,Kolkata
Pragati Pally Adhibasi Brindra,22.609594,88.400663,"Kalindi, South Dumdum - 700048, WB, India",CCU-N,Kolkata
Pragati Sangha Durgotsab Committee,22.477088,88.346821,"Purba Putiary,Regent Park, Kolkata-700093",CCU-S,Kolkata
Pragati Sangha Sabojanin Durgotsav,22.494614,88.316649,"Bhupen Roy Rd, Jadu Colony, Sarada Pally, Kolkata, West Bengal 700034",CCU-S,Kolkata
Pragati Yuva Samaj Club,22.7036756,88.3686295,"Sodepur, Khardaha - 700115, WB, India",CCU-N,Kolkata
Prantik Pally Durgapuja,22.520593,88.387959,"Om Namah Shivay Housing Society, Shanti Pally, Prantik Palli, Kasba, Kolkata, West Bengal 700042",CCU-S,Kolkata
Prasanta Disha Sarbojanin,22.499216,88.327644,"Behala, Kolkata - 700053, WB, India",CCU-S,Kolkata
Pratapaditya Road Tricone Park Barowari Durga Puja Committee,22.513472,88.344734,"88 Ward, Pratapaditya Rd, Sahanagar, Kalighat, Kolkata, West Bengal 700026",CCU-S,Kolkata
Priyanagar Swapan Smriti Sangha,22.7126224,88.3830556,"Khardaha - 700112, WB, India",CCU-N,Kolkata
Puratan Bati Puja,22.6962043,88.3674855,"Sodepur, Kamarhati - 700114, WB, India",CCU-N,Kolkata
Purba Barisha Sitalatala Kishore Sangha,22.480946,88.32156,"East Park, Barisha, Kolkata, West Bengal 700008",CCU-S,Kolkata
Purba Panihati Sarbojanin Durgotsab,22.6941334,88.3753482,"Sodepur, Kamarhati - 700114, WB, India",CCU-N,Kolkata
Purbachal Sarbojanin,22.573011,88.407463,"Sector III, Bidhannagar - 700097, WB, India",CCU-E,Kolkata
Purbachal Shakti Sangha,22.504944,88.388316,"22/10, Purbachal Main Rd, Ramlal Bazar, Haltu, Kolkata, West Bengal 700078",CCU-S,Kolkata
Purbapally Unnayan Samity,22.6999703,88.3895891,"Sodepur, Khardaha - 700110, WB, India",CCU-N,Kolkata
Putiary Club,22.480153,88.342985,"Paschim Putiary, Kolkata - 700040, WB, India",CCU-S,Kolkata
Putiary Sarbojanin Durgotsab Committee (Putiary Club),22.480004,88.343098,"1, Jadu Nath Ukil Rd, Banerjee Para, Paschim Putiary, Kolkata, West Bengal 700041",CCU-S,Kolkata
RA Block Sarbojanin Durgotsav,22.556549,88.41446,"Sector IV, Milan Nagar, Basani Devi Colony, Salt Lake City, Kolkata- 700105",CCU-E,Kolkata
Radhanath Basumallick House,22.573166,88.364258,"Bow Bazar North, Kolkata - 700073, WB, India",CCU-N,Kolkata
Raghava Bhawan,22.6973647,88.3676544,"Sodepur, Kamarhati - 700114, WB, India",CCU-N,Kolkata
Rail Vihar Puja Committee,22.512781,88.406073,"Anandapur Main Rd, Phase - 4, Niravra Cooperative Housing Society, Sector H, East Kolkata Twp, Kolkata-700107",CCU-S,Kolkata
Railway Park Recreation Club,22.704487,88.37866,"Sodepur, Khardaha - 700110, WB, India",CCU-N,Kolkata
Raipur Club,22.474798,88.378133,"New Raipur Rd, Dakshin Raipur, Garia, Kolkata, West Bengal 700047",CCU-S,Kolkata
Raja Krishna Das Laha,22.580138,88.365602,"Aurobindo Netralaya, Ward 39, Kolkata - 700007, WB, India",CCU-N,Kolkata
Raja Radha Kanta Deb Bahadur Nagar Unnoyon Samiti,22.7067698,88.3660134,"Khardaha - 700115, WB, India",CCU-N,Kolkata
Rajdanga Naba Uday Sangha,22.51667,88.391107,"700039, Rajdanga Chakraborty Para, Sector A, East Kolkata Twp, Kolkata, West Bengal 700039",CCU-S,Kolkata
Rajdanga Nabaday Sangha,22.513173,88.390008,"Rajdanga Main Road, Sarat Park, Rajdanga, Kasba, Kolkata-700107",CCU-S,Kolkata
Rajdanga Tribarna Sangha,22.515083,88.389534,"Kasbah North, Kolkata - 700107, WB, India",CCU-S,Kolkata
Rajpur Sarbojanin Durgotsab,22.427938,88.416713,"Banstala, Aghore Sarani, Kolkata, West Bengal-700150",CCU-S,Kolkata
Ram Lochon Shaire Street Barowari (Shitala Mandir),22.624524,88.359602,"Belur, Math, Howrah, West Bengal 711202",HWH,Kolkata
"Ramdulal Nibas Thakurbari, Chhatubabu Latubabus",22.590216,88.364441,"Shobha Bazar East, Kolkata - 700003, WB, India",CCU-N,Kolkata
Ramesh Dutta Street Sarbojanin,22.589534,88.361256,"Ramesh Dutta St, Kolkata, West Bengal 700006",CCU-N,Kolkata
Ramgarh Satapally Sarbojanin Durgotsav Committee,22.474398,88.376421,"Ramgarh E Block, Kolkata-700047",CCU-S,Kolkata
Ramgopal Saha House,22.564456,88.362558,"Akrur Dutta Ln, Chandni Chowk, Kolkata - 700013, WB, India",CCU-N,Kolkata
Ramkrishna Park Durga Puja Mandap,22.6961337,88.3998634,"Panihati - 700111, WB, India",CCU-N,Kolkata
Ramkrishnapuram Residents Welfare Association,22.640108,88.367486,"Baranagar, Kolkata, West Bengal 700036",CCU-N,Kolkata
Rammohan Sammilani Durga Puja,22.581558,88.375117,"4, Rammohan Roy Rd, Yogi Para, Garpar, Machuabazar, Kolkata, West Bengal 700009",CCU-C,Kolkata
Rammohan Smriti Sangha,22.584149,88.372249,"24A, Amherst Row, Manicktala, Simla, Machuabazar, Kolkata, West Bengal 700009",CCU-C,Kolkata
Ramnagar Durgotsav,22.7079914,88.3831551,"Sodepur, Khardaha - 700110, WB, India",CCU-N,Kolkata
Rani Rashmoni Bhawan,22.562467,88.355352,"Hospital Street, New Market, Kolkata - 700013, WB, India",CCU-N,Kolkata
Rash Moni Bagan Kishore Sangha,22.558122,88.390937,"Rashmoni Bagan Ln, Tangra, Kolkata, West Bengal 700015",CCU-C,Kolkata
Red Star Sporting And Cultural Society,22.498549,88.309245,"Ramkrishna Sarani, Vivekananda Pally, Behala, Kolkata, West Bengal 700060",CCU-S,Kolkata
Roy Bahadur Road Netaji Sporting Club,22.49985,88.326195,"247/A/5, Adarshapally, Chamrapatti, Behala, Kolkata, West Bengal 700034",CCU-S,Kolkata
Roynagar Unnayan Samity,22.472414,88.360174,"9, Naskarpara, Roynagar, Opp. Mastarda Surya Sen Metro Railway Station, Kolkata - 700070",CCU-S,Kolkata
Rupchand Mukherjee Lane Sarbojanin Durgotsab,22.527326,88.345018,"20, Jatin Das Park, Patuapara, Bhowanipore, Kolkata, West Bengal 700025",CCU-S,Kolkata
S R Das Road Tarun Sangha Durga Puja,22.512332,88.346878,"10/5,S R Das Road, Kolkata-700026",CCU-S,Kolkata
SB Park - Thakurpukur,22.46724,88.308612,"Thakurpukur, Kolkata - 700063, WB, India",CCU-S,Kolkata
Sabarna Roychoudhury Atchala Temple,22.480011,88.306558,"F8J4+2JP, Sakher Bazar, Sabarna Para Rd, Subodh Pally, Paschim Barisha, Kolkata, West Bengal 700008",CCU-S,Kolkata
Saborna Roychoudhury(Borobari) Durga Puja Area,22.479964,88.311034,"700008, Barisha Baro Bari Rd, Bose Para, Purba Barisha, Kolkata, West Bengal 700008",CCU-S,Kolkata
Sabuj Sathi,22.495623,88.315622,"12, Arcadia, Behala, Kolkata, West Bengal 700034",CCU-S,Kolkata
Sahabagan Unnayan Samiti Durga Puja,22.70675,88.37127778,"Sodepur, Khardaha - 700115, WB, India",CCU-N,Kolkata
Sahapur Colony East Durga Puja,22.51166,88.32952,"j & K Block, Sahapur Colony (East), New Alipur, Kolkata-700 053",CCU-S,Kolkata
Sahapur Friends Association,22.505973,88.330521,"142, SN Roy Rd, Sahapur, New Alipore, Kolkata, West Bengal 700038",CCU-S,Kolkata
Sahapur Maitri Sangha,22.510592,88.326138,"38, Sahapur, New Alipore, Kolkata, West Bengal 700038",CCU-S,Kolkata
Sahapur Mitali Sangha,22.505306,88.325673,"14, Ishan Mondal Garden Road, Kolkata, West Bengal 700038",CCU-S,Kolkata
Sahapur Nabashakti Sangha,22.508403,88.331179,"31/2, Sahapur, New Alipore, Kolkata, West Bengal 700038",CCU-S,Kolkata
Sahapur Panchabatitala Sammilani,22.503661,88.324534,"114, Sahapur Main Rd, Behala, Kolkata, West Bengal 700038",CCU-S,Kolkata
Sahapur Sarbojanin Durgotsab Committee,22.504519,88.33488,"72 Kailash Pandit Lane, New Alipore, Kolkata-700053",CCU-S,Kolkata
Sahapur Suhrid Sangha Durga Puja Committee,22.508714,88.329027,"Rajani Mukherjee Road,Kolkata-70038",CCU-S,Kolkata
Sahid Colony Sarbojanin Durga Pujo,22.6950308,88.3764505,"Sodepur, Kamarhati - 700114, WB, India",CCU-N,Kolkata
Sahid Colony Sarbojanin Sarodutsab,22.612898,88.389983,"Paikpara First Row, Sahid Colony, Paikpara, Kolkata, West Bengal 700037",CCU-N,Kolkata
Salap Utsahi Sangha,22.614886,88.266437,"Salap, Domjur, Howrah, West Bengal 711409",HWH,Kolkata
Salkia Chatra Bayam Samity,22.594359,88.345369,"134, Salkia School Rd, Salkia, Howrah, West Bengal 711106",HWH,Kolkata
Salkia Sadharan Durga Puja (Jatadhari Park),22.604112,88.344719,"102/1/1, Sambhu Halder Lane, Babudanga, Bandhaghat, Mali Panchghara, Howrah, West Bengal 711106",HWH,Kolkata
Salkia Sitalatala Sarbojanin Durgotsab [Salkia Yuba Sangha Durga Puja],22.605696,88.34681,"20, Bhuban Mukherjee Lane, Howrah- 711106",HWH,Kolkata
Salt Lake AD Block,22.596856,88.406446,"262, 1st Avenue, Sector I, Bidhannagar - 700064, WB, India",CCU-E,Kolkata
Salt Lake AE Block - Part 2,22.600937,88.413355,"Sector I, Bidhannagar - 700064, WB, India",CCU-E,Kolkata
Salt Lake AG Block,22.598421,88.42329,"Arobit Academy, 32, 5th Cross Road, Sector II, Kolkata - 700091, WB, India",CCU-N,Kolkata
Salt Lake AH Block,22.594231,88.427271,"Sector II, Bidhannagar - 700101, WB, India",CCU-E,Kolkata
Salt Lake AK Block,22.588813,88.430843,"AK Block, Bidhannagar - 700102, WB, India",CCU-E,Kolkata
Salt Lake BE Block - West,22.596836,88.412197,"BE Park, 3rd Cross Road, Sector I, Bidhannagar - 700064, WB, India",CCU-E,Kolkata
Salt Lake BG Block,22.59545,88.423119,"Apeejay School, 5th Cross Road, Sector II, Bidhannagar - 700101, WB, India",CCU-E,Kolkata
Salt Lake BH Block,22.594241,88.42402,"BH Park, Sector II, Bidhannagar - 700135, WB, India",CCU-E,Kolkata
Salt Lake BJ Block,22.591015,88.426658,"BJ Block, Sector II, Salt Lake City, Kolkata, West Bengal 700091",CCU-E,Kolkata
Salt Lake CA Block,22.587495,88.399687,"Sector I, Bidhannagar - 700054, WB, India",CCU-E,Kolkata
Salt Lake CJ Block,22.58927,88.423599,"CJ Park, Bidhannagar - 700135, WB, India",CCU-E,Kolkata
Salt Lake CK-CL Block,22.584633,88.427861,"CKCL Park, Sector II, Bidhannagar - 700135, WB, India",CCU-E,Kolkata
Salt Lake DL Block,22.582136,88.425822,"DL Park, Bidhannagar - 700135, WB, India",CCU-E,Kolkata
Salt Lake GD Block,22.576777,88.414162,"GD Community Center, 1st Cross Road, Sector III, Bidhannagar - 700106, WB, India",CCU-E,Kolkata
Salt Lake HA Block,22.57641,88.412971,"HA Park, Sector III, Bidhannagar - 700135, WB, India",CCU-E,Kolkata
Salt Lake IA Block,22.574305,88.409523,"Medicos, 125, Block HA Sector 3, Sector III, Bidhannagar - 700097, WB, India",CCU-E,Kolkata
Salt Lake Labony Estate Puja,22.582869,88.406723,"Labony Housing Playground, 1st Cross Road, Sector III, Bidhannagar - 700097, WB, India",CCU-E,Kolkata
Samaj Sebi Sangha,22.515591,88.357719,"Manoharpukur, Kolkata - 700029, WB, India",CCU-S,Kolkata
Samaj Sebi Sangha(Ballygunge),22.516932,88.356058,"Rowland Row, Ballygunge, Kolkata, West Bengal 700029",CCU-S,Kolkata
Samarpally AB Block Sarbojanin Durgotsav,22.5926688,88.4319563,"Samarpally, Krishnapur, Kestopur, Kolkata- 700102, West Bengal",CCU-E,Kolkata
Sammilita Lalabagan Sarbojanin,22.587382,88.376873,"88, Raja Dinendra St, Manicktala, Sahitya Parishad, Kolkata, West Bengal 700006",CCU-N,Kolkata
Sammilita Malapara Sarbojanin,22.58767,88.354756,"5-B, Malapara, Jorabagan, Kolkata, West Bengal 700006",CCU-N,Kolkata
Sandhani Durgotsav,22.595656,88.361839,"96, BK Paul Ave, Sovabazar, Shobhabazar, Kolkata, West Bengal 700005",CCU-N,Kolkata
Sanghasree - Kalighat,22.521324,88.345886,"35B, Gurupada Halder Rd, Kalighat, Kolkata, West Bengal 700026",CCU-S,Kolkata
Sanghasree Club Panihati,22.700609,88.3745841,"The Sayans Blog, Peerless Nagar, Barrackpore Trunk Road, Sodepur, Kolkata - 700114, WB, India",CCU-N,Kolkata
Sanghatirtha,22.583686,88.383406,"No.9, Bagmari Rd, Bagmari, Kolkata, West Bengal 700054",CCU-N,Kolkata
Sangrami,22.590536,88.395699,"Maniktala, Kolkata - 700067, WB, India",CCU-E,Kolkata
Sankat Mochan Shiv Mandir ,22.7013964,88.3682255,"Sodepur, Khardaha - 700114, WB, India",CCU-N,Kolkata
Santi Doot Sangha,22.48025,88.294954,"Satin Sen Pally, Sarsuna, Kolkata, West Bengal 700061",CCU-S,Kolkata
Santosh Mitra Square,22.565994,88.365663,"Natabar Dutta Row Road, Lebutala, Bowbazar, Kolkata-700014",CCU-C,Kolkata
Santoshpur Agragami,22.494265,88.377991,"Jadavpur, Kolkata - 700075, WB, India",CCU-S,Kolkata
Santoshpur Avenue South,22.49083,88.380316,"Baghajatin, Kolkata - 700075, WB, India",CCU-S,Kolkata
Santoshpur Avenue South Pally Mangal Samity,22.492201,88.37986,"4, Avenue S, Bidhan Colony, Santoshpur, Kolkata, West Bengal 700075",CCU-S,Kolkata
Santoshpur Bibekananda Sangha,22.493908,88.383392,"Jadavpur, Kolkata - 700075, WB, India",CCU-S,Kolkata
Santoshpur Lake Pally,22.491326,88.38274646,"Lake W Rd, Lake Terrace, Santoshpur, Kolkata, West Bengal 700075",CCU-S,Kolkata
Santoshpur Sonar Tori Durgotsav,22.491857,88.378544,"13, Avenue North, Kolkata 700075.",CCU-S,Kolkata
Santoshpur Trikon Park,22.491825,88.385799,"31, Santoshpur Ave, Adipally Santoshpur, Solak Pally, Haltu, Kolkata, West Bengal 700075",CCU-S,Kolkata
Santoshpur Trikone Park,22.492996,88.378448,"Bapuji Nagar, Kolkata - 700075, WB, India",CCU-S,Kolkata
Saradia Sammilani (Chatushkone Park),22.511076,88.344317,"59/2A/1A, Pratapaditya Road, Kolkata ? 700 026",CCU-S,Kolkata
Saraswat Sangha Durgotsav,22.7037186,88.3835761,"Sodepur, Khardaha - 700110, WB, India",CCU-N,Kolkata
Sarat Chatterjee Park Puja Samity (Triangular Park),22.517934,88.358221,"68, Purna Das Rd, Triangular Park, Hindustan Park, Gariahat, Kolkata, West Bengal 700029",CCU-S,Kolkata
Sarat Youth Association,22.60877,88.405814,"Borat Colony, Block A, Lake Town, Kolkata, West Bengal 700055",CCU-N,Kolkata
Saratpally Sarbojanin Durgotsav Committee,22.484994,88.335907,"Saratpally Karunamoye Ghat Road, Kolkata-700082",CCU-S,Kolkata
Sarir Sangathan Samity,22.563183,88.380954,"19, S Sealdah Rd, Seal Lane, Tangra, Kolkata, West Bengal 700015",CCU-C,Kolkata
Sarkar Bagan Sammilita Sangha,22.606431,88.377386,"3/2, Nilmoni Mitra Row, Bidhan Sarani, Tala, Kolkata, West Bengal 700002",CCU-N,Kolkata
Sarsuna Milan Tirtha Durga Puja,22.479002,88.294906,"8, Jadav Ghosh Rd, Kamala Park, Sarsuna, Kolkata, West Bengal 700061",CCU-S,Kolkata
Satadal,22.595271,88.367844,"Shyam Bazar, Kolkata - 700003, WB, India",CCU-N,Kolkata
Satellite Township Club,22.483875,88.287555,"Ho Chi Minh Sarani, New Shakuntala Park, Sarsuna, Kolkata, West Bengal 700061",CCU-S,Kolkata
Sealdah Railway Athletic Club,22.570942,88.372135,"ESI Hospital, Sealdah, 301, Acharya Jagadish Chandra Bose Road, Baitakkhana North, Kolkata - 700009, WB, India",CCU-C,Kolkata
Sebak Sangha,22.511377,88.347542,"LT Tapan Chowdhury Avenue, Kalighat, Kolkata - 700033, WB, India",CCU-S,Kolkata
Selimpur Club,22.50493,88.370537,"Kasba, Kolkata - 700031, WB, India",CCU-S,Kolkata
Selimpur Naskarpara,22.504808,88.37606,"Naskarpara Para Playground, Ward 92, Kolkata - 700019, WB, India",CCU-S,Kolkata
Selimpur Pally,22.505087,88.368149,"Dhakuria, Kolkata - 700068, WB, India",CCU-S,Kolkata
Selimpur Pally Sarbojanin Durgotsab Committee,22.504883,88.367864,"37/3A, Selimpur Rd, Dhakuria, Selimpur, Kolkata, West Bengal 700031",CCU-S,Kolkata
Sen Barir Puja (Tarapukur),22.68847222,88.38675,"Sodepur, Kamarhati - 700109, WB, India",CCU-N,Kolkata
Senhati Durgotsav Samiti,22.497103,88.329028,"Satyen Roy Rd, Senhati Colony, Behala, Kolkata, West Bengal 700034",CCU-S,Kolkata
Seth Colony SarbojaninÂ Durgotsab Committee,22.696587,88.378067,"Sodepur, Kamarhati - 700114, WB, India",CCU-N,Kolkata
Shaktipur Sabuj Shikha Club,22.6884561,88.391659,"Sodepur, Panihati - 700109, WB, India",CCU-N,Kolkata
Shaktipur Yuba Sangha Club,22.6899544,88.3919485,"Sodepur, Panihati - 700109, WB, India",CCU-N,Kolkata
Shambhunath Sen Bari,22.569775,88.36581,"Lady Dufferin Victoria Hospital, Kolkata, Ward 49, Kolkata - 700009, WB, India",CCU-N,Kolkata
Sherwood Estate Puja Committee,22.439922,88.395799,"Garia Main Road, SH 1, Ramchandrapur, Narendrapur, Kolkata, West Bengal 700103",CCU-S,Kolkata
Shibaji Sangha Park,22.588545,88.307326,"1, 2, 4, Kedar Bhattacharjee Ln, Ichapur, Howrah, West Bengal 711104",HWH,Kolkata
Shibmandir Sarbojanin Durgotsab,22.510822,88.349388,"Lake Temple Road, Ward 87, Kolkata - 700053, WB, India",CCU-S,Kolkata
Shibmandir Sarbojanin Durgotsab Samiti,22.511142,88.349772,"25, Lake Tample Road, Kolkata-700029",CCU-S,Kolkata
Shibpur Nimtala Barwari,22.571335,88.311199,"68, Kashinath Chatterjee Ln, Mandirtala, Naora, Shibpur, Howrah, West Bengal 711102",HWH,Kolkata
Shovabazar 9er Pally Sarbajanin Durgatsab,22.596795,88.364917,"67C, Raja Naba Krishna St, Girish Park, Sovabazar, Kolkata- 700005",CCU-N,Kolkata
Shramapally Adhibasibrinda,22.55867,88.410391,"Chaulpatty Rd, Kulia, Beleghata, Kolkata, West Bengal 700010",CCU-E,Kolkata
Shurir Bagan,22.594558,88.387563,"Ultadanga, Kolkata - 700067, WB, India",CCU-N,Kolkata
Shyam Square Sarbojanin Durgapuja-O-Prodorshani,22.600761,88.368728,"41/1A, Ramkanto Bose St, Bidhan Sarani, Baghbazar, Kolkata, West Bengal 700003",CCU-N,Kolkata
Shyama Pally Shyama Sangha,22.490875,88.371954,"29, Shyam Sunder Pally Main Road, Shyama Pally, Muchipara, Behala Mauza, Behala, Kolkata- 700061",CCU-S,Kolkata
Shyamapally Shyama Sangha,22.49152,88.37159,"Ananda Pally, Kolkata - 700032, WB, India",CCU-S,Kolkata
Shyambazar Nabin Sangha,22.598718,88.375332,"Shyambazar Nabin Sangha, Jadu Mitra Lane, Shyam Bazar, Kolkata - 700004, WB, India",CCU-N,Kolkata
Shyambazar Palli Sangha,22.600186,88.369567,"48, Shyam Bazar St, Hati Bagan, Shyam Bazar, Kolkata, West Bengal 700004",CCU-N,Kolkata
Shyampukur Adi Sarbojanin Durgotsab Committee,22.597637,88.370826,"22, Shyam Bazar, Ramdhan Mitra Lane, Hati Bagan, Kolkata, West Bengal 700004",CCU-N,Kolkata
Sikdar Bagan Sadharan Durgotsov,22.596646,88.372309,"No. 69/1, Sikdar Bagan Street, Hati Bagan, Kolkata, West Bengal 700004",CCU-N,Kolkata
Sikdarbagan,22.596539,88.372843,"Sikdar Bagan St, Ward 11, Kolkata - 700037, WB, India",CCU-N,Kolkata
Simla Bayam Samity,22.585401,88.365009,"9B, Singhee Lane, P O. Beadon Street, Simla, Machuabazar, Kolkata, West Bengal 700006",CCU-C,Kolkata
Simla Sporting Club,22.585108,88.366717,"Simla St, Girish Park, Kolkata - 700003, WB, India",CCU-C,Kolkata
Simla Vivekananda Sporting Club,22.586059,88.366842,"Raja Rammohan Roy Rd, Manicktala, Azad Hind Bag, Kolkata, West Bengal 700006",CCU-N,Kolkata
Singhi Park Sarbojanin,22.5208668,88.3631521,"16, Nandi St, Dover Terrace, Ballygunge, Kolkata, West Bengal 700029",CCU-S,Kolkata
Sinthee Youth Athletic Club,22.629376,88.386955,"60/1D, Kalicharan Ghosh Rd, W-Block, Sinthi, Kolkata, West Bengal 700050",CCU-N,Kolkata
Sitalatala Kishore Sangha,22.481987,88.322479,"Kolkata - 700008, WB, India",CCU-S,Kolkata
Sitalatala Sanghasree Club,22.488128,88.311237,"Madhya Para, Behala Industrial Estate, Behala, Kolkata, West Bengal 700034",CCU-S,Kolkata
Sodepur 4 No.Deshbandu Nagar Durga Puja,22.6995034,88.376809,"Sodepur, Khardaha - 700114, WB, India",CCU-N,Kolkata
Sodepur Central Park,22.6999021,88.3797932,"Sodepur, Khardaha - 700110, WB, India",CCU-N,Kolkata
Sodepur Club,22.701075,88.386784,"Debnath Bari, 2/9, Jay Gopal Das Road, Sodepur, Khardaha - 700110, WB, India",CCU-N,Kolkata
Sodepur Deep Prangan,22.7014112,88.3795206,"Sodepur, Khardaha - 700110, WB, India",CCU-N,Kolkata
Sodepur Naboday Sangha,22.7038544,88.3776032,"The Sayans Blog, Peerless Nagar, Barrackpore Trunk Road, Sodepur, Kolkata - 700114, WB, India",CCU-N,Kolkata
Sodepur Pragati Sangha (Haridevpur),22.48103,88.331273,"Dhawan Colony, Paschim Putiary, Kolkata, West Bengal 700082",CCU-S,Kolkata
Sodepur Sanmilani Club,22.6986298,88.3759221,"Rabindranath Tagore Road, Sodepur, Khardaha - 700114, WB, India",CCU-N,Kolkata
Sodepur Waterside Apartment Durga Puja,22.6944505,88.3795303,"Sodepur, Kamarhati - 700114, WB, India",CCU-N,Kolkata
"Sonali Park Sports & Cultural Society, Garia",22.464968,88.37055,"3, Sonali Park, Bansdroni, Kolkata, West Bengal 700084",CCU-S,Kolkata
Sonamukhi Gosthotala Progati Sangha Durga Puja,22.474242,88.277989,"Sonamukhi Road , Daspara,Kolkata-700141",CCU-S,Kolkata
Sonar Durga Bari,22.499776,88.314599,"56, Brahmo Samaj Road, Behala, 9, Kedar Chatterjee Ln, New Bakshi Bagan, Bakshi Bagan, Behala, Kolkata, West Bengal 700034",CCU-S,Kolkata
Sonarpur Natun Pally Youth Club,22.437708,88.442823,"Middle Rd, Ghasiara, Rajpur Sonarpur, West Bengal 700150v",CCU-S,Kolkata
Sonarpur Power House Sarbojanin Durgotsab [Sonarpur Recreation Club],22.443127,88.424852,"Sonarpur, Saheb Para, Power House, Kolkata,700150, Sonarpur Station Road, Sonarpur, Kolkata-700150",CCU-S,Kolkata
Sonarpur Sadharan Sammilani Club,22.429067,88.417069,"Aghore Sarani, Paschatya Para, Harinavi, Kolkata, West Bengal 700150",CCU-S,Kolkata
Sovabazar B K Pal Park,22.5953,88.360017,"107, BK Paul Ave, Ahiritola, Beniatola, Kolkata, West Bengal 700005",CCU-N,Kolkata
Sovabazar Beniatola Sarbojanin Durgotsab Samity,22.595874,88.361108,"Beniatola St, Sovabazar, Shobhabazar, Kolkata, West Bengal 700005",CCU-N,Kolkata
Sovabazar Nat Mondir,22.596856,88.366417,"Shyam Bazar, Kolkata - 700003, WB, India",CCU-N,Kolkata
Sovabazar Rajbari,22.596295,88.367387,"Raja Nabakrishna Street, Ward 10, Kolkata - 700037, WB, India",CCU-N,Kolkata
Sovabazar Rajbari,22.596798,88.367233,"Shobhabazar Rajbari Nathmandir, Raja Nabakrishna Street, Shyam Bazar, Kolkata - 700003, WB, India",CCU-N,Kolkata
Sovabazar Sarbojanin,22.597193,88.361084,"Sobha Bazar Street, Kashi Mitra, Kolkata - 700003, WB, India",CCU-N,Kolkata
Sovabazar Sarbojanin Durgotsab (Sovabazar Sangrami),22.597379,88.360416,"87, Sovabazar St, Sovabazar, Hatkhola, Kolkata, West Bengal 700005",CCU-N,Kolkata
Sree Sree Durga Puja Committee Rabindrapally,22.614752,88.43728,"Rabindrapally, Jyangra, Baguiati, Kolkata, West Bengal 700059",CCU-E,Kolkata
Sree Sree Sarodiya Durgotsab [Abasorika Club],22.507319,88.370179,"38J/12, Maharaja Tagore Road, Kolkata-700031",CCU-S,Kolkata
Sreebhumi Sporting Club Durga Puja,22.59889,88.402939,"Sreebhumi, Lake Town, South Dum Dum, West Bengal 700048",CCU-N,Kolkata
Sreeramnagar Appartment,22.627056,88.434231,"Rajarhat Gopalpur, Bidhannagar - 700052, WB, India",CCU-E,Kolkata
Srinagar Paschimpara Puja Committee,22.46908,88.402238,"Srinagar West, Near Garia Rly Station,Panchasayar, Kolkata 700094",CCU-S,Kolkata
State Bank Park Sarbojanin Durgotsav,22.467976,88.30903,"133, Diamond Harbour Rd, State Bank Park, Thakur Pukur, Kolkata, West Bengal 700063",CCU-S,Kolkata
Sthaniya Yuvak Brinda (Ashuti Netaji Sangha),22.472595,88.25612,West Bengal 700141,CCU-S,Kolkata
Subal Chand Chandra Thakurbari,22.580331,88.367952,"Bechu Chatterjee St, City College, Kolkata - 700006, WB, India",CCU-N,Kolkata
Subhash Chandra Sporting Club,22.7008294,88.3684049,"Sodepur, Khardaha - 700114, WB, India",CCU-N,Kolkata
Subhasnagar Nabajagaran Durga Puja,22.69263889,88.40036111,"Panihati - 700111, WB, India",CCU-N,Kolkata
Subodh Mallick Square,22.563452,88.359647,"Subodh Mullick Square, Ward 51, Kolkata - 700013, WB, India",CCU-C,Kolkata
Suhrid Sangha,22.516629,88.346933,"Rash Behari Ave, Lake Market, Kalighat, Kolkata, West Bengal 700029",CCU-S,Kolkata
Sukchar Girja Nagarik Brinda,22.7099298,88.3737488,"Sodepur, Khardaha - 700115, WB, India",CCU-N,Kolkata
Sukchar Kali Tala,22.7095774,88.366792,"Sodepur, Khardaha - 700115, WB, India",CCU-N,Kolkata
Sukchar Sarbbajanin (Durga Dalan Ghoshpara),22.7052375,88.369063,"Sodepur, Khardaha - 700115, WB, India",CCU-N,Kolkata
Sukhtara: Sardar Bari Puja,22.595525,88.37273,"Nalani Sarkar Street, Ward 11, Kolkata - 700037, WB, India",CCU-N,Kolkata
Sunil Nagar Sarbojanin,22.52843,88.384732,"143/31A, Picnic Garden Rd, Tiljala, Kolkata, West Bengal 700039",CCU-S,Kolkata
Sunny Seasons Durga Puja,22.445444,88.389111,"Garia.Ramchandrapur, Kamalgachhi More,Kolkata, West Bengal 70015,",CCU-S,Kolkata
Sunrise Point Durga Puja,22.6226549,88.4682377,"Street No. 653, AA- Iic, Newtown, New Town, Kolkata- 700156, West Bengal",CCU-E,Kolkata
Supari Bagan Sarbojonin Durgotsav,22.6998138,88.3720657,"Sodepur, Khardaha - 700114, WB, India",CCU-N,Kolkata
Surir Bagan Sarbojanin Durgotsav Committee,22.594794,88.387383,"Surir Bagan, Ultadanga, Kolkata, West Bengal 700067",CCU-N,Kolkata
Suruchi Sangha,22.509346,88.333664,"Kowloon, Ward 81, Kolkata - 700053, WB, India",CCU-S,Kolkata
Suruchi Sangha (New Alipore),22.509053,88.334498,"Super Snack Bar, Block M 500 And 505, Station Rd, New Alipore, Kolkata, West Bengal 700053",CCU-S,Kolkata
Surya Nagar Sarbojanin,22.47489,88.359344,"Queen of Peace Church, Netaji Subhash Chandra Bose Road, Bansdroni, Kolkata - 700070, WB, India",CCU-S,Kolkata
Suryanagar Sarbojanin Durga Puja Committee,22.476493,88.358262,"1/20, Surya Nagar, N.S.C. Bose Road , Tollygunge, Kolkata - 700040",CCU-S,Kolkata
Swami Vivekananda Statue,22.6917381,88.3688039,"Sodepur, Kamarhati - 700114, WB, India",CCU-N,Kolkata
Swamiji Sarak Young Bengal Club,22.488423,88.329193,"Swamiji Sarak, Behala, Kolkata, West Bengal 700008",CCU-S,Kolkata
Swapnar Bagan Yubak Brinda,22.579193,88.395462,"Maniktala, Kolkata - 700054, WB, India",CCU-E,Kolkata
Swasti Nagar Durgapuja Club,22.6931093,88.3787592,"Sodepur, Kamarhati - 700114, WB, India",CCU-N,Kolkata
Tala Barowari,22.607212,88.376022,"M.G.M. Rubber Company, 86/1, Barrackpore Trunk Road, Cossipore, Kolkata - 700002, WB, India",CCU-N,Kolkata
Tala Palli,22.608385,88.374886,"M.G.M. Rubber Company, 86/1, Barrackpore Trunk Road, Cossipore, Kolkata - 700002, WB, India",CCU-N,Kolkata
Taltala Shakti Mandir,22.614742,88.351134,"Guha Rd, Vivekananda Colony, Ghusuri, Howrah, West Bengal 711107",HWH,Kolkata
Tangra Ghol Para Sarbojanin Durgotsav,22.553355,88.391036,"13D, Tangra, Kolkata, West Bengal 700046",CCU-C,Kolkata
Tangra Harisava Math Sarbojanin,22.55495,88.391065,"54, Debendra Chandra Dey Rd, Tangra, Kolkata, West Bengal 700015",CCU-C,Kolkata
Tapoban Abasan Durgotsav,22.498907,88.409002,"Madurdaha Main Road, Madurdaha, Hussainpur, Kolkata, West Bengal 700107",CCU-S,Kolkata
Tarapukur Paschimpally Puja Mandop (Govt.Regd.),22.6876068,88.3855353,"Sodepur, Kamarhati - 700109, WB, India",CCU-N,Kolkata
Tarun Sporting Club,22.586536,88.364998,"Ramtanu Bose Ln, Manicktala, Azad Hind Bag, Kolkata, West Bengal 700006",CCU-N,Kolkata
Telengabagan Sarbojanin Durgotsab,22.594935,88.38544,"65, Adhar Chandra Das Lane, Kolkata - 700067.",CCU-N,Kolkata
Thakurpukur Vivekanandapally Sangha,22.464553,88.306687,"Diamond Harbour Rd, Pallymangal, Paschim Barisha, Kolkata, West Bengal 700063",CCU-S,Kolkata
Thanthania Kali Bari,22.580998,88.365748,"Aurobindo Netralaya, Ward 39, Kolkata - 700007, WB, India",CCU-N,Kolkata
The Bengal Boys Training Association,22.517557,88.341179,"Kalighat Road, Bhowanipore, Kolkata - 700026, WB, India",CCU-S,Kolkata
Tiljala Baisakhi Club,22.47706,88.377727,"S14A, Ashoke Rd, Baghajatin Colony, Kolkata, West Bengal 700084",CCU-S,Kolkata
Tiljala Yubak Brinda,22.530962,88.381746,"123/B, Picnic Garden Rd, Majdia, Kata Pukur, Tiljala, Kolkata, West Bengal 700039",CCU-S,Kolkata
Tirthabharati Sarbojanin Durgoutsav,22.6937099,88.3990474,"Panihati - 700111, WB, India",CCU-N,Kolkata
Tollygunge Adi Durga Mancha Puja Committee,22.502261,88.343884,"Gobinda Banerjee Ln, Tollygunge, Kolkata, West Bengal 700033",CCU-S,Kolkata
Tollygunge Regent Colony Sarbojonin Durga Utsav,22.489293,88.349618,"41/52, Netaji Subhash Chandra Bose Rd, Regent Colony, Tollygunge, Kolkata, West Bengal 700040",CCU-S,Kolkata
Tollygunger Kirti,22.487762,88.345794,"97, Chandi Ghosh Rd, Moor Avenue, Mirania Gardens 2, Ashok Nagar, Tollygunge, Kolkata-700040",CCU-S,Kolkata
Torpedo Welfare Society,22.571863,88.312779,"Binod Behari Halder Ln, Naora, Shibpur, Howrah, West Bengal 711102",HWH,Kolkata
Triangular Park Sarbojanin,22.517978,88.357962,"Sarat Chatterjee Park, Rash Behari Avenue, Manoharpukur, Kolkata - 700029, WB, India",CCU-S,Kolkata
Tridhara Sammilani Durga Puja,22.519548,88.355434,"Near Deshapriya Park, Satyendranath Mazumder Sarani, Dover Terrace, Kolkata- 700025",CCU-S,Kolkata
Trishakti Sangha Club,22.7028028,88.3943811,"Sodepur, Panihati - 700110, WB, India",CCU-N,Kolkata
Udayan Kidderpore,22.544175,88.321421,"Andaman Dock, Khidirpur, Kolkata, West Bengal 700023",CCU-S,Kolkata
Udayan Sangha,22.501814,88.387711,"Kasbah North, Kolkata - 700078, WB, India",CCU-S,Kolkata
Udayan Sangha - Kalikapur,22.502531,88.392032,"13, Dakshin Purbachal Hospital Rd, Kalikapur, South Purbachal, Haltu, Kolkata, West Bengal 700078",CCU-S,Kolkata
Udayan Sangha Club,22.6970744,88.3979748,"Panihati - 700111, WB, India",CCU-N,Kolkata
Udyan Sangha,22.6948649,88.36653,"Sodepur, Kamarhati - 700114, WB, India",CCU-N,Kolkata
Ultadanga 13 & 14 Pally Durga Puja Committee,22.594518,88.383834,"24A,Ultadaga Main Road, Kolkata -700067",CCU-N,Kolkata
Ultadanga Bidhan Sangha,22.592874,88.383229,"Ultadanga, Kolkata - 700067, WB, India",CCU-N,Kolkata
Ultadanga Pallyshree,22.595855,88.384417,"Muchibazar,, Ultadanga, Kolkata, West Bengal 700067",CCU-N,Kolkata
Ultadanga Sangrami,22.590404,88.39489,"Bagmari Rd, Block Number 5, Brs 3, Ghose Bagan, Bidhannagar, West Bengal 700054",CCU-E,Kolkata
Ultadanga United Club,22.59126,88.391265,"United Club, 103, Ultadanga Main Rd, Ultadanga, Kolkata - 700067, WB, India",CCU-N,Kolkata
Ultadanga Yuba Brinda,22.595825,88.381683,"5N, Ultadanga Main Rd, Ultadanga, Kolkata - 700067, WB, India",CCU-N,Kolkata
United Club - Baguiati,22.612362,88.42783,"Rail Pukur Rd, Shastri Bagan, Desh Bandhu Nagar, Baguiati, Kolkata, West Bengal 700059",CCU-N,Kolkata
United Club - Ultadanga,22.591261,88.391281,"Ultadanga, Kolkata, West Bengal 700054",CCU-N,Kolkata
United Club Nabalia Para,22.487417,88.319118,"8, Nabalia Para Rd, Barisha, Kolkata, West Bengal 700008",CCU-S,Kolkata
Ushumpur Uttarpally Sporting Club,22.685506,88.3978575,"Panihati - 700109, WB, India",CCU-N,Kolkata
Uttar Bantra Kumar Para Baroary Samity,22.597521,88.323886,"2, Sarat Dutta Lane, Kadamtala, Howrah-711101",HWH,Kolkata
Uttar Khurut Barwari,22.584324,88.323836,"J. N. B., Jainarayan Babu Ananda Datta Lane, Kadam Tala, Howrah, West Bengal 711101",HWH,Kolkata
Uttar Panchanan Gram Milan,22.532141,88.396339,"Kolkata - 700039, WB, India",CCU-S,Kolkata
Uttar Salkia Sarbojanain Durgotsav,22.608865,88.347917,"120/1, Sashi Bhushan Mukherjee Lane Salkia, Ghusuri, Howrah, West Bengal 711106",HWH,Kolkata
VIP Nagar Sarbojanin Durga Puja Committee,22.525504,88.396036,"12, VIP Nagar, Kolkata-700100",CCU-S,Kolkata
Vidyasagar Central Sarbojanin Durgotsav,22.481118,88.375093,"Vidya Sagar Main Rd, Vidyasagar Colony, Ganguly Bagan, Kolkata, West Bengal 700047",CCU-S,Kolkata
Vivekananda Pally Sarbojanin Durga Puja,22.499082,88.307987,"45 Pally, Behala, Kolkata, West Bengal 700060",CCU-S,Kolkata
Vivekananda Park Atheletic Club,22.481469,88.337014,"76/9, Mahatma Gandhi Rd, Haridevpur, Paschim Putiary, Kolkata, West Bengal 700041",CCU-S,Kolkata
Vivekananda Park Milan Chakra Club (Garia),22.462403,88.371195,"V-23/1, New Sonali Park, Vivekananda Park, Kamdahari, Kolkata, West Bengal 700084",CCU-S,Kolkata
Vivekananda Youth Club,22.458979,88.308177,"James Long Sarani, Mukund Das Colony, Thakur Pukur, Kolkata, West Bengal 700063",CCU-S,Kolkata
Wellington Nagrik Kalyan Samity Durga Puja,22.564713,88.357538,"Biplabi Anukul Chandra Street, Princep St, Bowbazar, Kolkata, West Bengal 700072",CCU-C,Kolkata
Young Mens Association Agarpara,22.6857218,88.3737802,"Sodepur, Kamarhati - 700058, WB, India",CCU-N,Kolkata
Yuba Sangha Club,22.485378,88.36499,"Bijoygarh, Kolkata - 700095, WB, India",CCU-S,Kolkata
Yuvak Brinda Club,22.6897627,88.4047512,"Panihati - 700111, WB, India",CCU-N,Kolkata
Basdroni Saroj Sangha Durgotsav,22.4740606,88.3579141,"Sibdas Banerjee Sarani, Bansdroni Gardens, Sree Kanan, Bansdroni, Kolkata, West Bengal 700070, India",CCU-S,Kolkata
Alipore 78 Pally,22.523349,88.3375695,"Gopalnagar Rd, Alipore, Kolkata, West Bengal 700027, India",CCU-S,Kolkata
Kona Barowari,22.6384609,88.291257,"Benaras Rd, Kona, Howrah, West Bengal 711114, India",HWH,Kolkata
Pilot Bagan Adhibasibrinda,22.6150259,88.3076648,"Pilot Bagan Ln, Bhatta Nagar, Liluah, Howrah, West Bengal 711114, India",HWH,Kolkata
Kona Rajasthan Sporting Club,22.6155451,88.3053695,"Balitikuri, Howrah, West Bengal 711114, India",HWH,Kolkata
Swamiji Sporting Club,22.5830726,88.3066323,"45, Kalabagan Ln, Pal Bari, Baruipara, Ichapur, Howrah, West Bengal 711104, India",HWH,Kolkata
Balaka Math Mela Ground,22.671643,88.3512632,"A.L.Banerjee Street, Bhadrakali, Uttarpara, West Bengal 712232, India",Hoogly,Kolkata
"Sinthee Sarbojonin Durgapuja, Biswanath Park",22.624718,88.385286,"141a, 141A /2E, 1h, S Sinthee Rd, Biswanath Colony, Sinthee, Kolkata, West Bengal 700050, India",CCU-N,Kolkata
Purbachal Jagari Sangha,22.5043226,88.3945024,"79A, Purbachal Main Rd, South Purbachal, Haltu, Kolkata, West Bengal 700078, India",CCU-S,Kolkata
CE 72 Block,22.5760205,88.4589053,"Street No 185, 94, CE Block(Newtown), Action Area I, Newtown, New Town, West Bengal 700136, India",CCU-N,Kolkata
"Nabin Bhaban, Kazipara club",22.6233525,88.4180281,"87, Kabi Nabin Sen Rd, Nagerbazar, Kamardanga, North Dumdum, West Bengal 700028, India",CCU-N,Kolkata
Dankuni Sporting Club(DSP),22.68219,88.284609,"Monoharpur, Gobra, Dankuni, West Bengal 712311, India",Hoogly,Kolkata
Kalipur Sporting Club(KSP),22.68485,88.278088,"Gobra, Kalipur, Dankuni, West Bengal 712708",Hoogly,Kolkata
NewTown Sarbojonin ,22.5820638,88.4576909,"Green Verge, 7, Street Number 131, Action Area 1B, Newtown, New Town, West Bengal 700156, India",CCU-N,Kolkata
